 2015  424 0141 10.5 L  28.017  85.351  0.0  GOR  5 2.0                        1
 GAP=194        3.31      43.4    27.7999.9 -0.7885E+03  0.3014E+05 -0.5739E+05E
                                                                               6
 STAT SP IPHASW D HRMM SECON CODA AMPLIT PERI AZIMU VELO AIN AR TRES W  DIS CAZ7
 PKIN     P   1    141 20.70                              93    1.73 7 49.0 175 
 PKIN     S   2    141 22.50                              93   -2.81 5 49.0 175 
 PKI      P   1    141 20.80                              93    1.69 7 49.7 173 
 DMN      P   1    141 21.30                              93    1.92 7 51.3 208 
 DMN      S   2    141 23.20                              93   -2.82 5 51.3 208 
 GUN      P   1    141 18.10                              93   -1.64 7 53.4 103 
 GKN      P   1    141 21.20                              91   -1.43 7 70.2 269 
 DANN     P   4    141 23.00                              91   -15.1 0  160 284 
                                                                                
