 2015  510 1443  5.8 L  86.060  27.810  1.0       5 0.1 2.4L                   1
 STAT SP IPHASW D HRMM SECON CODA AMPLIT PERI AZIMU VELO AIN AR TRES W  DIS CAZ7
 GUN      P   1   1443  9.70                                                    
 GUN      S   1   1443 11.80                                                    
 PKI      P   1   1443 18.00                                                    
 PKIN     P   1   1443 18.00                                                    
 EVN      P   1   1443 19.00                                                    

 2015  510 1452 21.2 L  85.730  28.190 10.0       5 0.9 2.2L                   1
 STAT SP IPHASW D HRMM SECON CODA AMPLIT PERI AZIMU VELO AIN AR TRES W  DIS CAZ7
 GUN      P   1   1452 28.60                                                    
 PKIN     P   1   1452 34.70                                                    
 PKI      P   1   1452 34.60                                                    
 PKI      S   1   1452 41.90                                                    
 EVN      P   1   1452 39.00                                                    

 2015  510 1455  9.2 L  85.100  28.020 10.0      12 1.1 2.9L                   1
 STAT SP IPHASW D HRMM SECON CODA AMPLIT PERI AZIMU VELO AIN AR TRES W  DIS CAZ7
 GKN      P   1   1455 16.40                                                    
 GKN      S   1   1455 21.50                                                    
 DMN      P   1   1455 17.30                                                    
 DMN      S   1   1455 23.70                                                    
 PKIN     P   1   1455 19.10                                                    
 PKIN     S   1   1455 22.50                                                    
 PKI      P   1   1455 19.30                                                    
 PKI      S   1   1455 27.20                                                    
 GUN      P   1   1455 22.80                                                    
 KOLL     P   1   1455 34.40                                                    
 KOLL     S   1   1455 52.30                                                    
 EVN      P   1   1455 37.50                                                    

 2015  510 1500 32.3 L  84.740  28.050 10.0       7 0.9 2.3L                   1
 STAT SP IPHASW D HRMM SECON CODA AMPLIT PERI AZIMU VELO AIN AR TRES W  DIS CAZ7
 GKN      P   1   15 0 33.50                                                    
 DMN      P   1   15 0 42.30                                                    
 DMN      S   1   15 0 51.00                                                    
 PKIN     P   1   15 0 45.80                                                    
 PKI      P   1   15 0 46.50                                                    
 DANN     P   1   15 0 51.10                                                    
 GUN      P   1   15 0 51.80                                                    

 2015  510 1505 13.5 L  86.890  28.710 10.0       5 1.0 2.7L                   1
 STAT SP IPHASW D HRMM SECON CODA AMPLIT PERI AZIMU VELO AIN AR TRES W  DIS CAZ7
 EVN      P   1   15 5 28.00                                                    
 EVN      S   1   15 5 37.10                                                    
 PKI      P   1   15 5 45.40                                                    
 PKIN     P   1   15 5 45.40                                                    
 GKN      P   1   15 5 48.10                                                    

 2015  510 1510 36.6 L  84.980  27.930 10.0       6 0.7 1.9L                   1
 STAT SP IPHASW D HRMM SECON CODA AMPLIT PERI AZIMU VELO AIN AR TRES W  DIS CAZ7
 GKN      P   1   1510 42.40                                                    
 GKN      S   1   1510 46.40                                                    
 DMN      P   1   1510 44.60                                                    
 DMN      S   1   1510 46.30                                                    
 PKIN     P   1   1510 46.10                                                    
 PKI      P   1   1510 46.40                                                    

 2015  510 1511 46.4 L  86.150  27.790  3.0       5 0.0 2.1L                   1
 STAT SP IPHASW D HRMM SECON CODA AMPLIT PERI AZIMU VELO AIN AR TRES W  DIS CAZ7
 GUN      P   1   1511 51.80                                                    
 GUN      S   1   1511 55.40                                                    
 EVN      P   1   1511 58.30                                                    
 PKI      P   1   1511 59.80                                                    
 PKIN     P   1   1511 59.90                                                    

 2015  510 1514 28.2 L  86.150  27.800  3.0       5 0.0 2.2L                   1
 STAT SP IPHASW D HRMM SECON CODA AMPLIT PERI AZIMU VELO AIN AR TRES W  DIS CAZ7
 GUN      P   1   1514 33.60                                                    
 GUN      S   1   1514 37.10                                                    
 EVN      P   1   1514 40.00                                                    
 PKI      P   1   1514 41.70                                                    
 PKIN     P   1   1514 41.90                                                    

 2015  510 1527 47.9 L  85.180  27.780  3.0      13 0.7 2.9L                   1
 STAT SP IPHASW D HRMM SECON CODA AMPLIT PERI AZIMU VELO AIN AR TRES W  DIS CAZ7
 DMN      P   1   1527 51.40                                                    
 DMN      S   1   1527 55.00                                                    
 PKIN     P   1   1527 53.10                                                    
 PKIN     S   1   1527 57.80                                                    
 PKI      P   1   1527 53.30                                                    
 GKN      P   1   1527 57.20                                                    
 GUN      P   1   1527 59.50                                                    
 GUN      S   1   1528  8.70                                                    
 DANN     P   1   1528 13.90                                                    
 KOLL     P   1   1528 13.70                                                    
 KOLL     S   1   1528 33.00                                                    
 EVN      P   1   1528 13.80                                                    
 EVN      S   1   1528 35.40                                                    

 2015  510 1528 10.5 L  92.610  32.580 10.0       5 4.2 5.0L                   1
 STAT SP IPHASW D HRMM SECON CODA AMPLIT PERI AZIMU VELO AIN AR TRES W  DIS CAZ7
 GUN      P   1   1529 53.90                                                    
 GUN      S   0   1529 56.70                                                    
 PKI      P   1   1530 12.50                                                    
 DMN      P   1   1530 12.60                                                    
 GKN      P   1   1530 10.80                                                    

 2015  510 1535 41.8 L  85.220  28.030 10.0       4 0.0 2.1L                   1
 STAT SP IPHASW D HRMM SECON CODA AMPLIT PERI AZIMU VELO AIN AR TRES W  DIS CAZ7
 DMN      P   1   1535 50.30                                                    
 PKIN     P   1   1535 51.10                                                    
 PKI      P   1   1535 51.30                                                    
 GKN      P   1   1535 51.90                                                    

 2015  510 1539 42.1 L  92.980  26.950 10.0       4 3.9 4.9L                   1
 STAT SP IPHASW D HRMM SECON CODA AMPLIT PERI AZIMU VELO AIN AR TRES W  DIS CAZ7
 GUN      P   1   1541 11.90                                                    
 DMN      P   1   1541 29.10                                                    
 GKN      P   1   1541 30.40                                                    
 DANN     P   1   1541 48.10                                                    

 2015  510 1544  6.7 L  85.550  28.890 10.0      10 8.3 2.3L                   1
 STAT SP IPHASW D HRMM SECON CODA AMPLIT PERI AZIMU VELO AIN AR TRES W  DIS CAZ7
 GUN      P   1   1544 29.20                                                    
 GKN      P   1   1544 24.10                                                    
 GKN      S   1   1544 37.00                                                    
 DMN      P   1   1544 53.10                                                    
 EVN      P   1   1544 30.60                                                    
 EVN      S   1   1544 46.10                                                    
 DANN     P   1   1544 35.50                                                    
 DANN     S   1   1544 58.40                                                    
 KOLL     P   1   1544 40.00                                                    
 KOLL     S   0   1544 41.80                                                    

 2015  510 1600 43.7 L  86.070  27.660  6.0       9 1.5 2.2L                   1
 STAT SP IPHASW D HRMM SECON CODA AMPLIT PERI AZIMU VELO AIN AR TRES W  DIS CAZ7
 GUN      P   1   16 0 51.50                                                    
 PKI      P   1   16 0 56.30                                                    
 PKIN     P   1   16 0 56.30                                                    
 EVN      P   1   16 0 58.90                                                    
 EVN      S   1   16 1  6.00                                                    
 DMN      P   1   16 1  0.20                                                    
 DMN      S   1   16 1 10.00                                                    
 DANN     P   1   16 1 22.10                                                    
 DANN     S   1   16 1 46.90                                                    

 2015  510 1608 33.4 L  86.150  27.620 10.0       7 1.0 1.9L                   1
 STAT SP IPHASW D HRMM SECON CODA AMPLIT PERI AZIMU VELO AIN AR TRES W  DIS CAZ7
 GUN      P   1   16 8 41.50                                                    
 PKI      P   1   16 8 46.80                                                    
 PKI      S   1   16 8 53.80                                                    
 PKIN     P   1   16 8 46.90                                                    
 PKIN     S   1   16 8 53.30                                                    
 EVN      P   1   16 8 47.40                                                    
 EVN      S   1   16 8 53.90                                                    

 2015  510 1619 36.4 L  85.850  27.640 10.0       6 2.0 3.0L                   1
 STAT SP IPHASW D HRMM SECON CODA AMPLIT PERI AZIMU VELO AIN AR TRES W  DIS CAZ7
 GUN      P   1   1619 41.40                                                    
 PKI      P   1   1619 41.40                                                    
 PKI      S   1   1619 47.10                                                    
 PKIN     P   1   1619 47.00                                                    
 DMN      P   1   1619 51.50                                                    
 EVN      P   1   1619 53.40                                                    

 2015  510 1630 23.3 L  85.370  28.100 10.0       4 0.1 2.0L                   1
 STAT SP IPHASW D HRMM SECON CODA AMPLIT PERI AZIMU VELO AIN AR TRES W  DIS CAZ7
 PKIN     P   1   1630 33.30                                                    
 PKI      P   1   1630 33.70                                                    
 DMN      P   1   1630 33.90                                                    
 GKN      P   1   1630 36.00                                                    

 2015  510 1634  3.4 L  86.070  27.810 10.0       4 0.0 1.8L                   1
 STAT SP IPHASW D HRMM SECON CODA AMPLIT PERI AZIMU VELO AIN AR TRES W  DIS CAZ7
 GUN      P   1   1634  7.30                                                    
 PKI      P   1   1634 15.60                                                    
 PKIN     P   1   1634 15.80                                                    
 DMN      P   1   1634 20.30                                                    

 2015  510 1643 12.0 L  85.790  28.120 18.0       4 0.0 1.5L                   1
 STAT SP IPHASW D HRMM SECON CODA AMPLIT PERI AZIMU VELO AIN AR TRES W  DIS CAZ7
 GUN      P   1   1643 18.80                                                    
 PKI      P   1   1643 25.30                                                    
 PKIN     P   1   1643 25.30                                                    
 EVN      P   1   1643 29.60                                                    

 2015  510 1647 15.0 L  85.990  28.260 10.0       4 0.1 2.4L                   1
 STAT SP IPHASW D HRMM SECON CODA AMPLIT PERI AZIMU VELO AIN AR TRES W  DIS CAZ7
 EVN      P   1   1647 30.10                                                    
 PKI      P   1   1647 31.50                                                    
 PKIN     P   1   1647 31.30                                                    
 DMN      P   1   1647 34.40                                                    

 2015  510 1649 21.5 L  85.930  27.470 10.0       9 1.1 2.3L                   1
 STAT SP IPHASW D HRMM SECON CODA AMPLIT PERI AZIMU VELO AIN AR TRES W  DIS CAZ7
 GUN      P   1   1649 28.10                                                    
 PKI      P   1   1649 30.60                                                    
 PKI      S   1   1649 36.30                                                    
 PKIN     P   1   1649 30.60                                                    
 PKIN     S   1   1649 36.00                                                    
 EVN      P   1   1649 39.20                                                    
 EVN      S   1   1649 51.90                                                    
 GKN      P   1   1649 44.90                                                    
 GKN      S   1   1650  4.20                                                    

 2015  510 1658 46.6 L  86.080  27.900  5.0       8 0.9 3.1L                   1
 STAT SP IPHASW D HRMM SECON CODA AMPLIT PERI AZIMU VELO AIN AR TRES W  DIS CAZ7
 GUN      P   1   1658 51.60                                                    
 GUN      S   1   1658 53.10                                                    
 EVN      P   1   1658 57.50                                                    
 EVN      S   1   1659  9.40                                                    
 PKI      P   1   1659  0.30                                                    
 PKI      S   1   1659  9.80                                                    
 PKIN     P   1   1659  0.30                                                    
 PKIN     S   1   1659  8.80                                                    

 2015  510 1659 45.3 L  82.710  28.220 10.0      13 9.1 4.0L                   1
 STAT SP IPHASW D HRMM SECON CODA AMPLIT PERI AZIMU VELO AIN AR TRES W  DIS CAZ7
 KOLL     P   1   1659 55.20                                                    
 DANN     P   1   1659 52.20                                                    
 DANN     S   0   1659 54.10                                                    
 GKN      P   1   17 0 38.20                                                    
 GKN      S   1   17 0 41.90                                                    
 DMN      P   1   17 0 28.40                                                    
 DMN      S   0   17 0 35.90                                                    
 PKIN     P   1   17 0 23.40                                                    
 PKIN     S   0   17 0 26.30                                                    
 PKI      P   1   17 0 23.30                                                    
 PKI      S   0   17 0 24.90                                                    
 GUN      P   1   17 0 27.90                                                    
 EVN      P   1   17 0 40.70                                                    

 2015  510 1706 13.6 L  86.410  27.610 10.0       6 1.0 2.6L                   1
 STAT SP IPHASW D HRMM SECON CODA AMPLIT PERI AZIMU VELO AIN AR TRES W  DIS CAZ7
 EVN      P   1   17 6 23.00                                                    
 EVN      S   1   17 6 28.80                                                    
 GUN      P   1   17 6 25.80                                                    
 PKI      P   1   17 6 31.40                                                    
 PKIN     P   1   17 6 31.30                                                    
 PKIN     S   1   17 6 41.10                                                    

 2015  510 1714 49.6 L  86.420  27.920 10.0      12 8.0 2.7L                   1
 STAT SP IPHASW D HRMM SECON CODA AMPLIT PERI AZIMU VELO AIN AR TRES W  DIS CAZ7
 EVN      P   1   1714 51.90                                                    
 EVN      S   1   1715  0.20                                                    
 GUN      P   1   1715  6.10                                                    
 PKI      P   1   1715  5.90                                                    
 PKI      S   0   1715 15.80                                                    
 DMN      P   1   1715 20.10                                                    
 GKN      P   1   1715 23.10                                                    
 GKN      S   0   1715 25.50                                                    
 DANN     P   1   1715 32.10                                                    
 DANN     S   0   1715 39.00                                                    
 KOLL     P   1   1715 35.30                                                    
 KOLL     S   1   1715 43.20                                                    

 2015  510 1723 45.9 L  85.390  27.860  2.0       6 0.1 1.9L                   1
 STAT SP IPHASW D HRMM SECON CODA AMPLIT PERI AZIMU VELO AIN AR TRES W  DIS CAZ7
 PKIN     P   1   1723 51.50                                                    
 PKI      P   1   1723 51.70                                                    
 PKI      S   1   1723 55.50                                                    
 DMN      P   1   1723 53.00                                                    
 GUN      P   1   1723 54.60                                                    
 GUN      S   1   1723 59.90                                                    

 2015  510 1725 27.5 L  85.600  28.570 10.0       7 2.7 2.9L                   1
 STAT SP IPHASW D HRMM SECON CODA AMPLIT PERI AZIMU VELO AIN AR TRES W  DIS CAZ7
 GUN      P   1   1725 43.50                                                    
 PKIN     P   1   1725 49.90                                                    
 PKIN     S   1   1725 57.60                                                    
 PKI      P   1   1725 49.90                                                    
 GKN      P   1   1725 43.40                                                    
 EVN      P   1   1725 51.00                                                    
 EVN      S   1   1726  4.10                                                    

