 2015  510 0913 43.7 L  85.930  27.950 16.0       5 0.1 1.7L                   1
 STAT SP IPHASW D HRMM SECON CODA AMPLIT PERI AZIMU VELO AIN AR TRES W  DIS CAZ7
 GUN      P   1    913 47.40                                                    
 GUN      S   1    913 50.00                                                    
 PKI      P   1    913 56.10                                                    
 PKIN     P   1    913 56.00                                                    
 EVN      P   1    913 59.10                                                    

 2015  510 0917  7.0 L  85.690  27.800  6.0       5 0.1 1.9L                   1
 STAT SP IPHASW D HRMM SECON CODA AMPLIT PERI AZIMU VELO AIN AR TRES W  DIS CAZ7
 GUN      P   1    917 11.70                                                    
 GUN      S   1    917 15.10                                                    
 PKI      P   1    917 14.20                                                    
 PKIN     P   1    917 14.10                                                    
 GKN      P   1    917 25.30                                                    

 2015  510 0921 45.3 L  90.850  29.610 10.0       7 5.1 5.4L                   1
 STAT SP IPHASW D HRMM SECON CODA AMPLIT PERI AZIMU VELO AIN AR TRES W  DIS CAZ7
 EVN      P   1    922 43.90                                                    
 EVN      S   0    922 52.50                                                    
 GUN      P   1    922 48.20                                                    
 GUN      S   0    922 58.10                                                    
 PKI      P   1    923  7.60                                                    
 PKIN     P   1    923  7.60                                                    
 DMN      P   1    923 11.90                                                    

 2015  510 0937 42.7 L  82.140  29.520 10.0       6 5.1 5.2L                   1
 STAT SP IPHASW D HRMM SECON CODA AMPLIT PERI AZIMU VELO AIN AR TRES W  DIS CAZ7
 GKN      P   1    938 18.30                                                    
 DMN      P   1    938 42.00                                                    
 PKIN     P   1    938 37.70                                                    
 PKIN     S   0    938 40.30                                                    
 PKI      P   1    938 37.80                                                    
 GUN      P   1    938 41.90                                                    

 2015  510 0942 46.8 L  85.050  28.080 10.0       4 0.0 2.8L                   1
 STAT SP IPHASW D HRMM SECON CODA AMPLIT PERI AZIMU VELO AIN AR TRES W  DIS CAZ7
 GKN      P   1    942 54.10                                                    
 DMN      P   1    942 55.90                                                    
 PKIN     P   1    942 58.10                                                    
 PKI      P   1    942 58.30                                                    

 2015  510 0947 42.4 L  85.320  27.790 26.0       9 0.9 2.5L                   1
 STAT SP IPHASW D HRMM SECON CODA AMPLIT PERI AZIMU VELO AIN AR TRES W  DIS CAZ7
 PKIN     P   1    947 48.70                                                    
 PKIN     S   1    947 55.90                                                    
 PKI      P   1    947 48.90                                                    
 PKI      S   1    947 56.10                                                    
 DMN      P   1    947 49.00                                                    
 DMN      S   1    947 57.60                                                    
 GUN      P   1    947 54.30                                                    
 EVN      P   1    948  5.90                                                    
 KOLL     P   1    948  8.10                                                    

 2015  510 0948  1.1 L  84.370  28.140 36.0      15 6.4 3.0L                   1
 STAT SP IPHASW D HRMM SECON CODA AMPLIT PERI AZIMU VELO AIN AR TRES W  DIS CAZ7
 GKN      P   1    948 13.00                                                    
 GKN      S   1    948 14.80                                                    
 DANN     P   1    948  5.50                                                    
 DANN     S   1    948 24.70                                                    
 KOLL     P   1    948  8.10                                                    
 KOLL     S   1    948 29.30                                                    
 DMN      P   1    948 22.20                                                    
 DMN      S   1    948 31.60                                                    
 PKIN     P   1    948 25.60                                                    
 PKIN     S   1    948 28.50                                                    
 PKI      P   1    948 26.60                                                    
 PKI      S   1    948 28.20                                                    
 GUN      P   1    948 30.10                                                    
 EVN      P   1    948 44.70                                                    
 EVN      S   1    948 48.90                                                    

 2015  510 0953 49.7 L  85.820  27.850 10.0       4 0.0 1.7L                   1
 STAT SP IPHASW D HRMM SECON CODA AMPLIT PERI AZIMU VELO AIN AR TRES W  DIS CAZ7
 GUN      P   1    953 51.30                                                    
 PKI      P   1    953 58.70                                                    
 PKIN     P   1    953 58.70                                                    
 GKN      P   1    954  9.90                                                    

 2015  510 0957 15.6 L  85.660  28.440 20.0       4 0.0 2.4L                   1
 STAT SP IPHASW D HRMM SECON CODA AMPLIT PERI AZIMU VELO AIN AR TRES W  DIS CAZ7
 GUN      P   1    957 27.60                                                    
 PKIN     P   1    957 32.60                                                    
 PKI      P   1    957 32.60                                                    
 EVN      P   1    957 36.00                                                    

 2015  510 1005 49.6 L  86.110  28.270 10.0      15 8.3 3.0L                   1
 STAT SP IPHASW D HRMM SECON CODA AMPLIT PERI AZIMU VELO AIN AR TRES W  DIS CAZ7
 GUN      P   1   10 6  6.80                                                    
 GUN      S   1   10 6  8.90                                                    
 EVN      P   1   10 5 50.80                                                    
 EVN      S   0   10 5 54.90                                                    
 PKI      P   1   10 6 12.10                                                    
 PKI      S   1   10 6 18.20                                                    
 PKIN     P   1   10 5 58.90                                                    
 PKIN     S   1   10 6 12.20                                                    
 DMN      P   1   10 6 15.30                                                    
 DMN      S   1   10 6 24.80                                                    
 GKN      P   1   10 6 21.10                                                    
 GKN      S   1   10 6 23.10                                                    
 DANN     P   1   10 6 36.30                                                    
 DANN     S   1   10 6 39.40                                                    
 KOLL     P   1   10 6 38.30                                                    

 2015  510 1011 16.2 L  85.500  27.730  0.0       9 0.8 2.8L                   1
 STAT SP IPHASW D HRMM SECON CODA AMPLIT PERI AZIMU VELO AIN AR TRES W  DIS CAZ7
 PKI      P   1   1011 19.50                                                    
 PKIN     P   1   1011 19.40                                                    
 PKIN     S   1   1011 21.80                                                    
 DMN      P   1   1011 23.60                                                    
 GUN      P   1   1011 23.60                                                    
 GUN      S   1   1011 28.40                                                    
 GKN      P   1   1011 30.50                                                    
 EVN      P   1   1011 37.90                                                    
 KOLL     P   1   1011 48.00                                                    

 2015  510 1013 12.2 L  85.150  27.940 10.0       6 1.5 2.3L                   1
 STAT SP IPHASW D HRMM SECON CODA AMPLIT PERI AZIMU VELO AIN AR TRES W  DIS CAZ7
 DMN      P   1   1013 20.30                                                    
 PKIN     P   1   1013 21.50                                                    
 PKI      P   1   1013 21.70                                                    
 PKI      S   1   1013 23.20                                                    
 GKN      P   1   1013 19.80                                                    
 GKN      S   1   1013 26.30                                                    

 2015  510 1016 41.9 L  85.580  27.930  3.0       5 0.0 2.6L                   1
 STAT SP IPHASW D HRMM SECON CODA AMPLIT PERI AZIMU VELO AIN AR TRES W  DIS CAZ7
 GUN      P   1   1016 47.50                                                    
 GUN      S   1   1016 51.20                                                    
 PKIN     P   1   1016 49.60                                                    
 PKI      P   1   1016 49.70                                                    
 DMN      P   1   1016 52.20                                                    

 2015  510 1018 40.6 L  85.670  27.820  9.0       9 0.2 2.5L                   1
 STAT SP IPHASW D HRMM SECON CODA AMPLIT PERI AZIMU VELO AIN AR TRES W  DIS CAZ7
 GUN      P   1   1018 45.70                                                    
 PKI      P   1   1018 48.00                                                    
 PKI      S   1   1018 53.90                                                    
 PKIN     P   1   1018 47.90                                                    
 PKIN     S   1   1018 54.20                                                    
 EVN      P   1   1019  0.30                                                    
 EVN      S   1   1019 14.00                                                    
 KOLL     P   1   1019 12.10                                                    
 KOLL     S   1   1019 36.30                                                    

 2015  510 1029 33.8 L  86.000  27.640  0.0       6 0.1 3.3L                   1
 STAT SP IPHASW D HRMM SECON CODA AMPLIT PERI AZIMU VELO AIN AR TRES W  DIS CAZ7
 GUN      P   1   1029 39.30                                                    
 GUN      S   1   1029 42.80                                                    
 PKI      P   1   1029 44.20                                                    
 PKI      S   1   1029 50.60                                                    
 PKIN     P   1   1029 44.20                                                    
 EVN      P   1   1029 48.90                                                    

 2015  510 1033 52.1 L  86.160  27.750 10.0       4 0.0 2.1L                   1
 STAT SP IPHASW D HRMM SECON CODA AMPLIT PERI AZIMU VELO AIN AR TRES W  DIS CAZ7
 GUN      P   1   1033 57.80                                                    
 EVN      P   1   1034  3.80                                                    
 PKI      P   1   1034  5.30                                                    
 PKIN     P   1   1034  5.60                                                    

 2015  510 1043 53.3 L  84.300  27.420 10.0       4 0.0 2.0L                   1
 STAT SP IPHASW D HRMM SECON CODA AMPLIT PERI AZIMU VELO AIN AR TRES W  DIS CAZ7
 GKN      P   1   1044  6.00                                                    
 KOLL     P   1   1044  6.90                                                    
 PKIN     P   1   1044 12.30                                                    
 PKI      P   1   1044 12.50                                                    

 2015  510 1049 26.3 L  96.990  31.190 10.0       6 9.5 5.1L                   1
 STAT SP IPHASW D HRMM SECON CODA AMPLIT PERI AZIMU VELO AIN AR TRES W  DIS CAZ7
 GUN      P   1   1051 47.60                                                    
 GUN      S   0   1051 49.60                                                    
 GKN      P   1   1052  6.40                                                    
 DANN     P   1   1052  8.20                                                    
 DANN     S   0   1052 18.50                                                    
 KOLL     P   1   1052 36.60                                                    

 2015  510 1100 51.4 L  86.550  27.130 10.0       4 0.5 3.2L                   1
 STAT SP IPHASW D HRMM SECON CODA AMPLIT PERI AZIMU VELO AIN AR TRES W  DIS CAZ7
 EVN      P   1   11 1  8.50                                                    
 EVN      S   1   11 1 18.80                                                    
 GUN      P   1   11 1  9.60                                                    
 GUN      S   1   11 1 23.40                                                    

 2015  510 1030 25.7 L  85.940  28.250  8.0       6 0.1 3.3L                   1
 STAT SP IPHASW D HRMM SECON CODA AMPLIT PERI AZIMU VELO AIN AR TRES W  DIS CAZ7
 GUN      P   1   1030 33.20                                                    
 EVN      P   1   1030 41.70                                                    
 PKI      P   1   1030 41.90                                                    
 PKIN     P   1   1030 41.80                                                    
 DMN      P   1   1030 44.50                                                    
 GKN      P   1   1030 47.70                                                    

 2015  510 1107 13.3 L  85.430  28.080 10.0      10 1.3 2.0L                   1
 STAT SP IPHASW D HRMM SECON CODA AMPLIT PERI AZIMU VELO AIN AR TRES W  DIS CAZ7
 PKI      P   1   11 7 24.30                                                    
 DMN      P   1   11 7 24.20                                                    
 DMN      S   1   11 7 29.70                                                    
 GKN      P   1   11 7 26.50                                                    
 GKN      S   1   11 7 34.20                                                    
 EVN      P   1   11 7 34.40                                                    
 DANN     P   1   11 7 42.40                                                    
 DANN     S   1   11 7 59.20                                                    
 KOLL     P   1   11 7 44.30                                                    
 KOLL     S   1   11 8  5.70                                                    

 2015  510 1108 57.5 L  85.390  27.930 10.0       6 1.0 1.7L                   1
 STAT SP IPHASW D HRMM SECON CODA AMPLIT PERI AZIMU VELO AIN AR TRES W  DIS CAZ7
 PKIN     P   1   11 9  4.90                                                    
 PKIN     S   1   11 9  7.00                                                    
 PKI      P   1   11 9  5.00                                                    
 DMN      P   1   11 9  6.60                                                    
 DMN      S   1   11 9 10.60                                                    
 GKN      P   1   11 9  9.20                                                    

 2015  510 1113 27.0 L  85.450  27.950  3.0       6 0.0 2.5L                   1
 STAT SP IPHASW D HRMM SECON CODA AMPLIT PERI AZIMU VELO AIN AR TRES W  DIS CAZ7
 PKIN     P   1   1113 34.50                                                    
 GUN      P   1   1113 34.60                                                    
 GUN      S   1   1113 39.70                                                    
 PKI      P   1   1113 34.70                                                    
 DMN      P   1   1113 36.20                                                    
 GKN      P   1   1113 41.00                                                    

 2015  510 1115 26.4 L  86.610  28.240 10.0       6 3.0 2.3L                   1
 STAT SP IPHASW D HRMM SECON CODA AMPLIT PERI AZIMU VELO AIN AR TRES W  DIS CAZ7
 EVN      P   1   1115 29.50                                                    
 EVN      S   1   1115 38.20                                                    
 GUN      P   1   1115 43.70                                                    
 GUN      S   1   1115 46.80                                                    
 PKI      P   1   1115 53.70                                                    
 GKN      P   1   1115 55.30                                                    

 2015  510 1123 44.1 L  87.100  27.470 10.0      10 9.0 3.3L                   1
 STAT SP IPHASW D HRMM SECON CODA AMPLIT PERI AZIMU VELO AIN AR TRES W  DIS CAZ7
 EVN      P   1   1123 51.80                                                    
 EVN      S   1   1124  0.90                                                    
 GUN      P   1   1124 16.20                                                    
 GUN      S   0   1124 20.40                                                    
 PKI      P   1   1124 17.70                                                    
 PKI      S   0   1124 23.60                                                    
 PKIN     P   1   1123 51.90                                                    
 PKIN     S   0   1124  2.60                                                    
 DMN      P   1   1124 19.80                                                    
 GKN      P   1   1124 24.90                                                    

 2015  510 1128 22.4 L  77.360  32.020 10.0       6 9.9 4.9L                   1
 STAT SP IPHASW D HRMM SECON CODA AMPLIT PERI AZIMU VELO AIN AR TRES W  DIS CAZ7
 DANN     P   1   1129 46.70                                                    
 PKIN     P   1   1130 34.10                                                    
 PKI      P   1   1130 34.10                                                    
 GUN      P   1   1130 18.30                                                    
 GUN      S   0   1130 22.60                                                    
 EVN      P   1   1130 36.20                                                    

 2015  510 1132 59.6 L  86.080  28.040 17.0      10 1.0 3.1L                   1
 STAT SP IPHASW D HRMM SECON CODA AMPLIT PERI AZIMU VELO AIN AR TRES W  DIS CAZ7
 GUN      P   1   1133  5.90                                                    
 EVN      P   1   1133 13.00                                                    
 EVN      S   1   1133 23.10                                                    
 PKI      P   1   1133 14.70                                                    
 PKIN     P   1   1133 14.70                                                    
 DMN      P   1   1133 17.30                                                    
 GKN      P   1   1133 20.60                                                    
 GKN      S   1   1133 41.70                                                    
 DANN     P   1   1133 33.80                                                    
 DANN     S   1   1133 59.10                                                    

