 2015  510 0002 11.4 L  85.810  27.760 38.0       4 0.0 1.5L                   1
 STAT SP IPHASW D HRMM SECON CODA AMPLIT PERI AZIMU VELO AIN AR TRES W  DIS CAZ7
 GUN      P   1    0 2 19.40                                                    
 PKI      P   1    0 2 22.10                                                    
 PKIN     P   1    0 2 22.20                                                    
 EVN      P   1    0 2 28.00                                                    

 2015  510 0004 41.1 L  84.880  27.990  7.0       5 0.0 2.4L                   1
 STAT SP IPHASW D HRMM SECON CODA AMPLIT PERI AZIMU VELO AIN AR TRES W  DIS CAZ7
 GKN      P   1    0 4 46.00                                                    
 GKN      S   1    0 4 49.70                                                    
 DMN      P   1    0 4 50.10                                                    
 PKIN     P   1    0 4 53.40                                                    
 PKI      P   1    0 4 53.60                                                    

 2015  510 0008 14.4 L  85.480  28.120 10.0       7 6.8 2.2L                   1
 STAT SP IPHASW D HRMM SECON CODA AMPLIT PERI AZIMU VELO AIN AR TRES W  DIS CAZ7
 PKIN     P   1    0 8 29.20                                                    
 PKIN     S   1    0 8 32.00                                                    
 GKN      P   1    0 8 19.30                                                    
 EVN      P   1    0 8 39.60                                                    
 EVN      S   1    0 8 48.60                                                    
 DANN     P   1    0 8 54.50                                                    
 KOLL     P   1    0 8 38.70                                                    

 2015  510 0015 33.3 L  85.140  27.750  9.0       8 0.1 2.8L                   1
 STAT SP IPHASW D HRMM SECON CODA AMPLIT PERI AZIMU VELO AIN AR TRES W  DIS CAZ7
 DMN      P   1    015 37.40                                                    
 DMN      S   1    015 40.60                                                    
 PKIN     P   1    015 39.80                                                    
 PKIN     S   1    015 44.70                                                    
 PKI      P   1    015 40.00                                                    
 PKI      S   1    015 45.40                                                    
 GUN      P   1    015 46.90                                                    
 EVN      P   1    015 59.90                                                    

 2015  510 0015 44.7 L  85.960  27.860  1.0      10 0.4 2.9L                   1
 STAT SP IPHASW D HRMM SECON CODA AMPLIT PERI AZIMU VELO AIN AR TRES W  DIS CAZ7
 GUN      P   1    015 46.90                                                    
 PKI      P   1    015 55.80                                                    
 PKI      S   1    016  3.40                                                    
 PKIN     P   1    015 55.80                                                    
 PKIN     S   1    016  2.60                                                    
 EVN      P   1    015 59.90                                                    
 EVN      S   1    016  9.20                                                    
 DMN      P   1    016  0.00                                                    
 DMN      S   1    016 10.90                                                    
 GKN      P   1    016  6.30                                                    

 2015  510 0002 14.2 L  85.860  27.650 10.0       4 0.0 1.7L                   1
 STAT SP IPHASW D HRMM SECON CODA AMPLIT PERI AZIMU VELO AIN AR TRES W  DIS CAZ7
 GUN      P   1    0 2 19.40                                                    
 PKI      P   1    0 2 22.10                                                    
 PKIN     P   1    0 2 22.20                                                    
 DMN      P   1    0 2 27.10                                                    

 2015  510 0004 40.8 L  84.980  28.100 10.0      11 1.1 2.6L                   1
 STAT SP IPHASW D HRMM SECON CODA AMPLIT PERI AZIMU VELO AIN AR TRES W  DIS CAZ7
 GKN      P   1    0 4 46.00                                                    
 GKN      S   1    0 4 49.70                                                    
 DMN      P   1    0 4 50.10                                                    
 DMN      S   1    0 4 57.80                                                    
 PKIN     P   1    0 4 53.40                                                    
 PKI      P   1    0 4 53.60                                                    
 PKI      S   1    0 4 59.60                                                    
 GUN      P   1    0 4 57.60                                                    
 DANN     P   1    0 5  0.70                                                    
 KOLL     P   1    0 5  4.40                                                    
 KOLL     S   1    0 5 23.30                                                    

 2015  510 0008 13.5 L  85.360  28.120 10.0       8 7.0 2.2L                   1
 STAT SP IPHASW D HRMM SECON CODA AMPLIT PERI AZIMU VELO AIN AR TRES W  DIS CAZ7
 PKIN     P   1    0 8 29.20                                                    
 PKIN     S   1    0 8 32.00                                                    
 GKN      P   1    0 8 19.30                                                    
 EVN      P   1    0 8 39.60                                                    
 EVN      S   1    0 8 48.60                                                    
 DANN     P   1    0 8 54.50                                                    
 KOLL     P   1    0 8 38.70                                                    
 KOLL     S   1    0 8 56.90                                                    

 2015  510 0015 33.3 L  85.140  27.750  9.0       8 0.1 2.8L                   1
 STAT SP IPHASW D HRMM SECON CODA AMPLIT PERI AZIMU VELO AIN AR TRES W  DIS CAZ7
 DMN      P   1    015 37.40                                                    
 DMN      S   1    015 40.60                                                    
 PKIN     P   1    015 39.80                                                    
 PKIN     S   1    015 44.70                                                    
 PKI      P   1    015 40.00                                                    
 PKI      S   1    015 45.40                                                    
 GUN      P   1    015 46.90                                                    
 EVN      P   1    015 59.90                                                    

 2015  510 0040 19.3 L  85.250  27.760  0.0      12 1.4 2.8L                   1
 STAT SP IPHASW D HRMM SECON CODA AMPLIT PERI AZIMU VELO AIN AR TRES W  DIS CAZ7
 DMN      P   1    040 23.60                                                    
 DMN      S   1    040 25.50                                                    
 PKIN     P   1    040 23.00                                                    
 PKIN     S   1    040 26.60                                                    
 PKI      P   1    040 23.30                                                    
 GUN      P   1    040 27.90                                                    
 GKN      P   1    040 29.90                                                    
 GKN      S   1    040 38.50                                                    
 EVN      P   1    040 43.60                                                    
 EVN      S   1    041  6.80                                                    
 DANN     P   1    040 46.40                                                    
 KOLL     P   1    040 47.10                                                    

 2015  510 0015 44.7 L  85.960  27.860  1.0      10 0.4 2.9L                   1
 STAT SP IPHASW D HRMM SECON CODA AMPLIT PERI AZIMU VELO AIN AR TRES W  DIS CAZ7
 GUN      P   1    015 46.90                                                    
 PKI      P   1    015 55.80                                                    
 PKI      S   1    016  3.40                                                    
 PKIN     P   1    015 55.80                                                    
 PKIN     S   1    016  2.60                                                    
 EVN      P   1    015 59.90                                                    
 EVN      S   1    016  9.20                                                    
 DMN      P   1    016  0.00                                                    
 DMN      S   1    016 10.90                                                    
 GKN      P   1    016  6.30                                                    

 2015  510 0042 50.0 L  86.640  27.600 13.0       6 0.1 3.1L                   1
 STAT SP IPHASW D HRMM SECON CODA AMPLIT PERI AZIMU VELO AIN AR TRES W  DIS CAZ7
 EVN      P   1    042 58.80                                                    
 EVN      S   1    043  5.40                                                    
 GUN      P   1    043  4.70                                                    
 PKI      P   1    043 10.60                                                    
 PKIN     P   1    043 10.50                                                    
 DMN      P   1    043 14.30                                                    

 2015  510 0049 53.0 L  86.010  27.770  7.0       4 0.0 3.8L                   1
 STAT SP IPHASW D HRMM SECON CODA AMPLIT PERI AZIMU VELO AIN AR TRES W  DIS CAZ7
 GUN      P   1    049 57.40                                                    
 PKIN     P   1    050  4.50                                                    
 EVN      P   1    050  7.40                                                    
 DMN      P   1    050  8.80                                                    

 2015  510 0107 11.2 L  86.600  28.220 10.0       6 1.8 2.3L                   1
 STAT SP IPHASW D HRMM SECON CODA AMPLIT PERI AZIMU VELO AIN AR TRES W  DIS CAZ7
 EVN      P   1    1 7 14.50                                                    
 EVN      S   1    1 7 22.70                                                    
 GUN      P   1    1 7 26.70                                                    
 GUN      S   1    1 7 32.20                                                    
 PKI      P   1    1 7 35.10                                                    
 DMN      P   1    1 7 37.80                                                    

 2015  510 0110 50.5 L  85.330  27.090 10.0       7 4.0 2.5L                   1
 STAT SP IPHASW D HRMM SECON CODA AMPLIT PERI AZIMU VELO AIN AR TRES W  DIS CAZ7
 PKI      P   1    111  2.20                                                    
 PKIN     P   1    111  2.20                                                    
 PKIN     S   1    111  6.20                                                    
 DMN      P   1    111  6.80                                                    
 GKN      P   1    111 12.90                                                    
 GKN      S   1    111 19.60                                                    
 EVN      P   1    111 13.80                                                    

 2015  510 0128 21.8 L  86.300  28.440 10.0       6 1.3 2.8L                   1
 STAT SP IPHASW D HRMM SECON CODA AMPLIT PERI AZIMU VELO AIN AR TRES W  DIS CAZ7
 GUN      P   1    128 35.80                                                    
 GUN      S   1    128 41.50                                                    
 EVN      P   1    128 32.30                                                    
 EVN      S   1    128 44.20                                                    
 PKI      P   1    128 44.20                                                    
 PKIN     P   1    128 44.10                                                    

 2015  510 0132 56.6 L  85.290  27.750  4.0       8 0.6 2.2L                   1
 STAT SP IPHASW D HRMM SECON CODA AMPLIT PERI AZIMU VELO AIN AR TRES W  DIS CAZ7
 PKIN     P   1    133  0.60                                                    
 PKIN     S   1    133  4.30                                                    
 PKI      P   1    133  0.90                                                    
 PKI      S   1    133  4.70                                                    
 DMN      P   1    133  0.60                                                    
 DMN      S   1    133  4.00                                                    
 GUN      P   1    133  6.80                                                    
 DANN     P   1    133 24.40                                                    

 2015  510 0133 50.7 L  85.950  27.670  9.0      10 1.2 2.5L                   1
 STAT SP IPHASW D HRMM SECON CODA AMPLIT PERI AZIMU VELO AIN AR TRES W  DIS CAZ7
 GUN      P   1    133 56.90                                                    
 PKI      P   1    134  0.60                                                    
 PKIN     P   1    134  0.50                                                    
 DMN      P   1    134  4.90                                                    
 EVN      P   1    134  9.10                                                    
 EVN      S   1    134 16.30                                                    
 GKN      S   1    134 30.60                                                    
 DANN     P   1    134 26.30                                                    
 DANN     S   1    134 50.10                                                    
 KOLL     S   1    134 52.90                                                    

 2015  510 0137 17.9 L  86.080  27.820 10.0       7 0.3 2.0L                   1
 STAT SP IPHASW D HRMM SECON CODA AMPLIT PERI AZIMU VELO AIN AR TRES W  DIS CAZ7
 GUN      P   1    137 22.30                                                    
 GUN      S   1    137 27.00                                                    
 PKI      P   1    137 30.90                                                    
 PKIN     P   1    137 30.80                                                    
 EVN      P   1    137 30.90                                                    
 EVN      S   1    137 41.00                                                    
 KOLL     P   1    137 54.50                                                    

 2015  510 0146 56.0 L  86.190  26.810 10.0       7 8.7 3.3L                   1
 STAT SP IPHASW D HRMM SECON CODA AMPLIT PERI AZIMU VELO AIN AR TRES W  DIS CAZ7
 PKI      P   1    147 23.90                                                    
 PKIN     P   1    147 23.60                                                    
 GUN      P   1    147 28.00                                                    
 DMN      P   1    147 20.90                                                    
 DMN      S   1    147 29.00                                                    
 EVN      P   1    147 11.00                                                    
 GKN      P   1    147 15.50                                                    

 2015  510 0149 44.2 L  85.680  27.790  6.0      13 1.1 2.9L                   1
 STAT SP IPHASW D HRMM SECON CODA AMPLIT PERI AZIMU VELO AIN AR TRES W  DIS CAZ7
 GUN      P   1    149 49.10                                                    
 PKI      P   1    149 51.20                                                    
 PKI      S   1    149 56.40                                                    
 PKIN     P   1    149 51.20                                                    
 DMN      P   1    149 54.40                                                    
 DMN      S   1    150  2.60                                                    
 GKN      P   1    150  5.10                                                    
 GKN      S   1    150 14.50                                                    
 EVN      P   1    150  1.30                                                    
 EVN      S   1    150 18.90                                                    
 DANN     P   1    150 15.60                                                    
 DANN     S   1    150 38.30                                                    
 KOLL     P   1    150 16.60                                                    

 2015  510 0159  9.9 L  71.860  27.900 10.0       510.0 5.3L                   1
 STAT SP IPHASW D HRMM SECON CODA AMPLIT PERI AZIMU VELO AIN AR TRES W  DIS CAZ7
 KOLL     P   1    2 1 33.30                                                    
 PKIN     P   1    2 2  3.40                                                    
 PKI      P   1    2 2  3.40                                                    
 GUN      P   1    2 2 24.80                                                    
 EVN      P   1    2 2  6.50                                                    

 2015  510 0223 36.7 L  86.080  27.660 10.0       8 0.7 2.2L                   1
 STAT SP IPHASW D HRMM SECON CODA AMPLIT PERI AZIMU VELO AIN AR TRES W  DIS CAZ7
 GUN      P   1    223 42.50                                                    
 PKI      P   1    223 47.80                                                    
 PKI      S   1    223 55.40                                                    
 PKIN     P   1    223 49.40                                                    
 PKIN     S   1    223 55.80                                                    
 EVN      P   1    223 50.70                                                    
 EVN      S   1    223 58.80                                                    
 DANN     P   1    224 15.20                                                    

 2015  510 0227 36.4 L  86.110  28.190 16.0       5 0.0 2.0L                   1
 STAT SP IPHASW D HRMM SECON CODA AMPLIT PERI AZIMU VELO AIN AR TRES W  DIS CAZ7
 GUN      P   1    227 44.70                                                    
 GUN      S   1    227 50.70                                                    
 EVN      P   1    227 49.90                                                    
 PKI      P   1    227 53.30                                                    
 PKIN     P   1    227 53.30                                                    

 2015  510 0233  8.7 L  70.180  26.100 10.0       4 9.3 4.9L                   1
 STAT SP IPHASW D HRMM SECON CODA AMPLIT PERI AZIMU VELO AIN AR TRES W  DIS CAZ7
 DANN     P   1    235 57.30                                                    
 GKN      P   1    236 27.10                                                    
 DMN      P   1    236  9.80                                                    
 GUN      P   1    236 35.70                                                    

 2015  510 0238 38.8 L  85.170  27.950  0.0       7 0.0 1.7L                   1
 STAT SP IPHASW D HRMM SECON CODA AMPLIT PERI AZIMU VELO AIN AR TRES W  DIS CAZ7
 DMN      P   1    238 45.60                                                    
 DMN      S   1    238 49.80                                                    
 PKIN     P   1    238 47.10                                                    
 PKIN     S   1    238 52.20                                                    
 PKI      P   1    238 47.20                                                    
 PKI      S   1    238 52.60                                                    
 GUN      P   1    238 50.90                                                    

