 2015  510 1726 16.4 L  86.040  27.950 14.0       5 0.0 2.5L                   1
 STAT SP IPHASW D HRMM SECON CODA AMPLIT PERI AZIMU VELO AIN AR TRES W  DIS CAZ7
 GUN      P   1   1726 21.30                                                    
 PKI      P   1   1726 30.10                                                    
 EVN      P   1   1726 30.10                                                    
 EVN      S   1   1726 40.10                                                    
 PKIN     P   1   1726 30.10                                                    

 2015  510 1741 28.6 L  79.530  31.300 10.0       5 8.2 4.5L                   1
 STAT SP IPHASW D HRMM SECON CODA AMPLIT PERI AZIMU VELO AIN AR TRES W  DIS CAZ7
 GKN      P   1   1742 38.30                                                    
 PKIN     P   1   1743 11.20                                                    
 PKI      P   1   1743 11.20                                                    
 GUN      P   1   1743  2.00                                                    
 EVN      P   1   1743 15.00                                                    

 2015  510 1744 44.5 L  84.830  27.890 24.0       4 0.0 1.5L                   1
 STAT SP IPHASW D HRMM SECON CODA AMPLIT PERI AZIMU VELO AIN AR TRES W  DIS CAZ7
 GKN      P   1   1744 51.60                                                    
 PKIN     S   1   1745  6.30                                                    
 GUN      P   1   1745  1.80                                                    
 EVN      P   1   1745 13.30                                                    

 2015  510 1751 16.2 L  84.660  28.560 10.0       8 4.0 2.6L                   1
 STAT SP IPHASW D HRMM SECON CODA AMPLIT PERI AZIMU VELO AIN AR TRES W  DIS CAZ7
 GKN      P   1   1751 22.00                                                    
 GKN      S   0   1751 24.80                                                    
 DMN      P   1   1751 44.00                                                    
 DMN      S   1   1751 48.20                                                    
 PKIN     P   1   1751 39.70                                                    
 PKI      P   1   1751 39.70                                                    
 GUN      P   1   1751 35.60                                                    
 EVN      P   1   1751 50.20                                                    

 2015  510 1758 37.4 L  85.310  27.870  4.0       8 0.2 1.7L                   1
 STAT SP IPHASW D HRMM SECON CODA AMPLIT PERI AZIMU VELO AIN AR TRES W  DIS CAZ7
 PKIN     P   1   1758 43.60                                                    
 PKIN     S   1   1758 48.00                                                    
 PKI      P   1   1758 43.80                                                    
 PKI      S   1   1758 48.30                                                    
 DMN      P   1   1758 43.60                                                    
 DMN      S   1   1758 48.90                                                    
 GUN      P   1   1758 47.80                                                    
 GUN      S   1   1758 54.20                                                    

 2015  510 1807 58.9 L  86.060  27.640 10.0       7 1.2 1.9L                   1
 STAT SP IPHASW D HRMM SECON CODA AMPLIT PERI AZIMU VELO AIN AR TRES W  DIS CAZ7
 GUN      P   1   18 8  5.60                                                    
 PKI      P   1   18 8 10.80                                                    
 PKI      S   1   18 8 16.10                                                    
 PKIN     P   1   18 8 10.80                                                    
 PKIN     S   1   18 8 16.90                                                    
 EVN      P   1   18 8 15.00                                                    
 EVN      S   1   18 8 20.70                                                    

 2015  510 1813 22.8 L  85.230  26.990 63.0      14 9.6 3.3L                   1
 STAT SP IPHASW D HRMM SECON CODA AMPLIT PERI AZIMU VELO AIN AR TRES W  DIS CAZ7
 PKI      P   1   1813 40.30                                                    
 PKIN     P   1   1813 40.20                                                    
 PKIN     S   1   1813 46.00                                                    
 DMN      P   1   1813 44.20                                                    
 DMN      S   1   1813 52.70                                                    
 GUN      P   1   1813 36.50                                                    
 GKN      P   1   1813 50.90                                                    
 GKN      S   1   1813 52.50                                                    
 KOLL     P   1   1813 43.20                                                    
 KOLL     S   1   1813 46.20                                                    
 EVN      P   1   1813 51.10                                                    
 EVN      S   1   1814  2.60                                                    
 DANN     P   1   1814  5.10                                                    
 DANN     S   1   1814 31.00                                                    

 2015  510 1820 57.7 L  85.670  28.660 10.0       6 6.9 2.5L                   1
 STAT SP IPHASW D HRMM SECON CODA AMPLIT PERI AZIMU VELO AIN AR TRES W  DIS CAZ7
 GUN      P   1   1821 17.70                                                    
 GUN      S   1   1821 20.20                                                    
 PKI      P   1   1821 27.80                                                    
 GKN      P   1   1821  9.00                                                    
 EVN      P   1   1821 25.70                                                    
 EVN      S   1   1821 29.80                                                    

 2015  510 1826 12.6 L  85.130  27.810  1.0       5 0.0 2.0L                   1
 STAT SP IPHASW D HRMM SECON CODA AMPLIT PERI AZIMU VELO AIN AR TRES W  DIS CAZ7
 DMN      P   1   1826 16.80                                                    
 PKIN     P   1   1826 19.20                                                    
 PKI      P   1   1826 19.50                                                    
 PKI      S   1   1826 23.70                                                    
 GKN      P   1   1826 21.90                                                    

 2015  510 1829 36.0 L  85.500  27.460 10.0       6 0.4 1.7L                   1
 STAT SP IPHASW D HRMM SECON CODA AMPLIT PERI AZIMU VELO AIN AR TRES W  DIS CAZ7
 PKI      P   1   1829 38.30                                                    
 PKIN     P   1   1829 38.50                                                    
 PKIN     S   1   1829 40.00                                                    
 DMN      P   1   1829 43.00                                                    
 DMN      S   1   1829 48.40                                                    
 GUN      P   1   1829 47.20                                                    

 2015  510 1833 19.2 L  85.110  28.030  1.0      11 0.5 2.0L                   1
 STAT SP IPHASW D HRMM SECON CODA AMPLIT PERI AZIMU VELO AIN AR TRES W  DIS CAZ7
 GKN      P   1   1833 26.30                                                    
 GKN      S   1   1833 32.00                                                    
 DMN      P   1   1833 27.00                                                    
 PKIN     P   1   1833 28.80                                                    
 PKIN     S   1   1833 36.10                                                    
 PKI      P   1   1833 29.00                                                    
 PKI      S   1   1833 36.80                                                    
 DANN     P   1   1833 42.20                                                    
 DANN     S   1   1833 59.40                                                    
 KOLL     P   1   1833 44.50                                                    
 KOLL     S   1   1834  2.50                                                    

 2015  510 1833 47.7 L  85.680  28.090 10.0       5 0.7 2.1L                   1
 STAT SP IPHASW D HRMM SECON CODA AMPLIT PERI AZIMU VELO AIN AR TRES W  DIS CAZ7
 PKIN     P   1   1833 59.20                                                    
 PKI      P   1   1833 59.30                                                    
 DMN      P   1   1834  1.80                                                    
 DMN      S   1   1834  9.10                                                    
 EVN      P   1   1834  6.50                                                    

 2015  510 1836  0.0 L  85.510  27.890  6.0       7 0.2 1.6L                   1
 STAT SP IPHASW D HRMM SECON CODA AMPLIT PERI AZIMU VELO AIN AR TRES W  DIS CAZ7
 GUN      P   1   1836  6.60                                                    
 GUN      S   1   1836 12.30                                                    
 PKIN     P   1   1836  7.20                                                    
 PKIN     S   1   1836 12.20                                                    
 PKI      P   1   1836  7.40                                                    
 PKI      S   1   1836 12.10                                                    
 EVN      P   1   1836 21.60                                                    

 2015  510 1838 28.0 L  85.420  27.580 78.0       4 0.1 1.3L                   1
 STAT SP IPHASW D HRMM SECON CODA AMPLIT PERI AZIMU VELO AIN AR TRES W  DIS CAZ7
 PKI      P   1   1838 39.10                                                    
 PKIN     P   1   1838 39.20                                                    
 GUN      P   1   1838 43.10                                                    
 GKN      P   1   1838 45.40                                                    

 2015  510 1841 15.5 L  85.650  27.710 11.0       7 0.8 1.8L                   1
 STAT SP IPHASW D HRMM SECON CODA AMPLIT PERI AZIMU VELO AIN AR TRES W  DIS CAZ7
 PKI      P   1   1841 22.50                                                    
 PKI      S   1   1841 27.20                                                    
 PKIN     P   1   1841 22.30                                                    
 PKIN     S   1   1841 25.00                                                    
 GUN      P   1   1841 22.20                                                    
 GUN      S   1   1841 27.60                                                    
 EVN      P   1   1841 35.30                                                    

 2015  510 1847 39.8 L  84.830  28.300 10.0       9 0.8 2.6L                   1
 STAT SP IPHASW D HRMM SECON CODA AMPLIT PERI AZIMU VELO AIN AR TRES W  DIS CAZ7
 GKN      P   1   1847 45.60                                                    
 DMN      P   1   1847 54.00                                                    
 DMN      S   1   1848  2.40                                                    
 PKIN     P   1   1847 57.50                                                    
 PKI      P   1   1847 57.70                                                    
 PKI      S   1   1848  9.20                                                    
 GUN      P   1   1847 58.50                                                    
 KOLL     P   1   1848  3.20                                                    
 EVN      P   1   1848 10.80                                                    

 2015  510 1850  0.3 L  85.260  27.780 10.0       4 0.0 1.7L                   1
 STAT SP IPHASW D HRMM SECON CODA AMPLIT PERI AZIMU VELO AIN AR TRES W  DIS CAZ7
 DMN      P   1   1850  4.70                                                    
 PKIN     P   1   1850  4.90                                                    
 PKI      P   1   1850  5.10                                                    
 GKN      P   1   1850 11.80                                                    

 2015  510 1851 24.7 L  85.550  28.130 10.0      11 1.8 2.4L                   1
 STAT SP IPHASW D HRMM SECON CODA AMPLIT PERI AZIMU VELO AIN AR TRES W  DIS CAZ7
 GUN      P   1   1851 32.00                                                    
 GUN      S   1   1851 34.20                                                    
 PKIN     P   1   1851 37.10                                                    
 PKIN     S   1   1851 43.20                                                    
 PKI      P   1   1851 37.20                                                    
 PKI      S   1   1851 42.30                                                    
 DMN      P   1   1851 41.00                                                    
 DMN      S   1   1851 42.90                                                    
 GKN      P   1   1851 40.30                                                    
 EVN      P   1   1851 46.40                                                    
 DANN     P   1   1851 51.00                                                    

 2015  510 1855  6.1 L  86.760  29.430 10.0       7 7.6 3.1L                   1
 STAT SP IPHASW D HRMM SECON CODA AMPLIT PERI AZIMU VELO AIN AR TRES W  DIS CAZ7
 GUN      P   1   1855 36.90                                                    
 GKN      P   1   1855 37.00                                                    
 GKN      S   0   1855 41.60                                                    
 DANN     P   1   1855 47.30                                                    
 DANN     S   0   1856  7.90                                                    
 KOLL     P   1   1856 11.50                                                    
 KOLL     S   1   1856 37.60                                                    

 2015  510 1854 13.1 L  72.670  31.250 10.0       4 8.7 5.2L                   1
 STAT SP IPHASW D HRMM SECON CODA AMPLIT PERI AZIMU VELO AIN AR TRES W  DIS CAZ7
 DANN     P   1   1856 29.70                                                    
 KOLL     P   1   1856 37.50                                                    
 GKN      P   1   1857  4.60                                                    
 GUN      P   1   1857  2.10                                                    

 2015  510 1908 23.3 L  86.040  27.640 10.0      11 0.7 2.9L                   1
 STAT SP IPHASW D HRMM SECON CODA AMPLIT PERI AZIMU VELO AIN AR TRES W  DIS CAZ7
 GUN      P   1   19 8 28.80                                                    
 PKI      P   1   19 8 33.60                                                    
 PKIN     P   1   19 8 33.70                                                    
 PKIN     S   1   19 8 41.40                                                    
 EVN      P   1   19 8 37.80                                                    
 EVN      S   1   19 8 47.30                                                    
 DMN      P   1   19 8 38.80                                                    
 DMN      S   1   19 8 49.50                                                    
 GKN      P   1   19 8 46.90                                                    
 DANN     P   1   19 9  1.60                                                    
 KOLL     P   1   19 9  1.40                                                    

 2015  510 1912 37.4 L  85.760  27.300 10.0       8 1.1 1.9L                   1
 STAT SP IPHASW D HRMM SECON CODA AMPLIT PERI AZIMU VELO AIN AR TRES W  DIS CAZ7
 PKI      P   1   1912 46.60                                                    
 PKI      S   1   1912 50.70                                                    
 PKIN     P   1   1912 46.40                                                    
 PKIN     S   1   1912 50.60                                                    
 GUN      P   1   1912 48.50                                                    
 DMN      P   1   1912 47.80                                                    
 EVN      P   1   1912 59.10                                                    
 GKN      P   1   1913  1.30                                                    

 2015  510 1921  9.0 L  85.880  27.750  0.0      11 0.5 2.2L                   1
 STAT SP IPHASW D HRMM SECON CODA AMPLIT PERI AZIMU VELO AIN AR TRES W  DIS CAZ7
 GUN      P   1   1921 12.20                                                    
 PKI      P   1   1921 17.50                                                    
 PKI      S   1   1921 24.20                                                    
 PKIN     P   1   1921 17.50                                                    
 PKIN     S   1   1921 23.90                                                    
 DMN      P   1   1921 21.80                                                    
 DMN      S   1   1921 30.80                                                    
 EVN      P   1   1921 25.60                                                    
 EVN      S   1   1921 36.30                                                    
 DANN     P   1   1921 43.70                                                    
 KOLL     P   1   1921 44.50                                                    

 2015  510 1929 23.5 L  85.090  27.910  0.0      12 1.3 1.7L                   1
 STAT SP IPHASW D HRMM SECON CODA AMPLIT PERI AZIMU VELO AIN AR TRES W  DIS CAZ7
 DMN      P   1   1929 29.10                                                    
 DMN      S   1   1929 30.50                                                    
 GKN      P   1   1929 30.60                                                    
 GKN      S   1   1929 36.80                                                    
 PKIN     P   1   1929 31.20                                                    
 PKIN     S   1   1929 38.50                                                    
 PKI      P   1   1929 31.40                                                    
 PKI      S   1   1929 38.50                                                    
 DANN     P   1   1929 46.50                                                    
 DANN     S   1   1930  2.10                                                    
 KOLL     P   1   1929 48.60                                                    
 KOLL     S   1   1930  8.30                                                    

 2015  510 1935 24.5 L  88.740  28.380 10.0       5 5.1 3.5L                   1
 STAT SP IPHASW D HRMM SECON CODA AMPLIT PERI AZIMU VELO AIN AR TRES W  DIS CAZ7
 GUN      P   1   1936  1.00                                                    
 PKI      P   1   1936 16.80                                                    
 PKIN     P   1   1936  8.40                                                    
 DMN      P   1   1936 24.40                                                    
 GKN      P   1   1936 23.90                                                    

 2015  510 1939 44.2 L  85.170  27.780 10.0       7 1.2 3.0L                   1
 STAT SP IPHASW D HRMM SECON CODA AMPLIT PERI AZIMU VELO AIN AR TRES W  DIS CAZ7
 DMN      P   1   1939 46.60                                                    
 DMN      S   1   1939 51.20                                                    
 PKIN     P   1   1939 49.90                                                    
 PKIN     S   1   1939 51.10                                                    
 PKI      P   1   1939 50.10                                                    
 GKN      P   1   1939 53.40                                                    
 GUN      P   1   1939 58.00                                                    

