 2015  510 0241 23.0 L  85.850  27.980 10.0       4 0.1 1.6L                   1
 STAT SP IPHASW D HRMM SECON CODA AMPLIT PERI AZIMU VELO AIN AR TRES W  DIS CAZ7
 GUN      P   1    241 24.60                                                    
 PKI      P   1    241 34.00                                                    
 PKIN     P   1    241 33.80                                                    
 GKN      P   1    241 43.30                                                    

 2015  510 0244 38.5 L  86.500  26.950 51.0       7 0.0 3.9L                   1
 STAT SP IPHASW D HRMM SECON CODA AMPLIT PERI AZIMU VELO AIN AR TRES W  DIS CAZ7
 EVN      P   1    244 56.90                                                    
 EVN      S   1    245 10.90                                                    
 GUN      P   1    244 57.70                                                    
 PKI      P   1    244 58.30                                                    
 PKIN     P   1    244 58.40                                                    
 DMN      P   1    245  1.80                                                    
 GKN      P   1    245  9.30                                                    

 2015  510 0253 33.7 L  85.170  28.240 10.0       5 1.4 2.3L                   1
 STAT SP IPHASW D HRMM SECON CODA AMPLIT PERI AZIMU VELO AIN AR TRES W  DIS CAZ7
 GKN      P   1    253 45.80                                                    
 GKN      S   1    253 48.50                                                    
 PKIN     P   1    253 47.50                                                    
 PKI      P   1    253 47.60                                                    
 GUN      P   1    253 45.90                                                    

 2015  510 0302 33.1 L  85.880  27.840 12.0       8 0.6 2.3L                   1
 STAT SP IPHASW D HRMM SECON CODA AMPLIT PERI AZIMU VELO AIN AR TRES W  DIS CAZ7
 GUN      P   1    3 2 36.40                                                    
 PKI      P   1    3 2 43.90                                                    
 PKIN     P   1    3 2 43.90                                                    
 PKIN     S   1    3 2 50.80                                                    
 DMN      P   1    3 2 47.90                                                    
 EVN      P   1    3 2 50.40                                                    
 EVN      S   1    3 3  0.40                                                    
 GKN      P   1    3 2 53.20                                                    

 2015  510 0306 21.6 L  85.560  27.630 10.0       4 0.0 1.8L                   1
 STAT SP IPHASW D HRMM SECON CODA AMPLIT PERI AZIMU VELO AIN AR TRES W  DIS CAZ7
 PKI      P   1    3 6 24.70                                                    
 PKIN     P   1    3 6 24.70                                                    
 GUN      P   1    3 6 29.30                                                    
 DMN      P   1    3 6 29.50                                                    

 2015  510 0313 16.8 L  85.880  27.700  1.0       6 0.2 2.7L                   1
 STAT SP IPHASW D HRMM SECON CODA AMPLIT PERI AZIMU VELO AIN AR TRES W  DIS CAZ7
 GUN      P   1    313 21.10                                                    
 PKI      P   1    313 25.40                                                    
 PKIN     P   1    313 25.60                                                    
 PKIN     S   1    313 30.90                                                    
 EVN      P   1    313 33.10                                                    
 EVN      S   1    313 45.00                                                    

 2015  510 0314 29.3 L  85.880  28.420 10.0      14 8.3 3.0L                   1
 STAT SP IPHASW D HRMM SECON CODA AMPLIT PERI AZIMU VELO AIN AR TRES W  DIS CAZ7
 GUN      P   1    314 44.80                                                    
 PKIN     P   1    314 54.40                                                    
 PKIN     S   1    314 55.90                                                    
 PKI      P   1    314 54.80                                                    
 PKI      S   1    314 58.50                                                    
 EVN      P   1    314 41.00                                                    
 EVN      S   1    314 51.80                                                    
 DMN      P   1    314 58.00                                                    
 DMN      S   1    314 59.60                                                    
 GKN      P   1    315  0.70                                                    
 DANN     P   1    315  9.30                                                    
 DANN     S   1    315 12.90                                                    
 KOLL     P   1    315 13.00                                                    
 KOLL     S   1    315 17.90                                                    

 2015  510 0331 48.8 L  86.140  27.800  7.0       7 0.7 2.0L                   1
 STAT SP IPHASW D HRMM SECON CODA AMPLIT PERI AZIMU VELO AIN AR TRES W  DIS CAZ7
 GUN      P   1    331 55.00                                                    
 GUN      S   1    331 58.60                                                    
 EVN      P   1    331 59.90                                                    
 EVN      S   1    332 11.00                                                    
 PKI      P   1    332  2.20                                                    
 PKIN     P   1    332  2.20                                                    
 DMN      P   1    332  7.40                                                    

 2015  510 0347 20.6 L  85.770  27.850  4.0       8 0.2 2.4L                   1
 STAT SP IPHASW D HRMM SECON CODA AMPLIT PERI AZIMU VELO AIN AR TRES W  DIS CAZ7
 GUN      P   1    347 23.80                                                    
 GUN      S   1    347 25.10                                                    
 PKI      P   1    347 29.10                                                    
 PKIN     P   1    347 29.10                                                    
 DMN      P   1    347 32.80                                                    
 DMN      S   1    347 42.10                                                    
 EVN      P   1    347 38.60                                                    
 GKN      P   1    347 39.90                                                    

 2015  510 0350 18.3 L  84.210  27.870 10.0      11 9.9 2.4L                   1
 STAT SP IPHASW D HRMM SECON CODA AMPLIT PERI AZIMU VELO AIN AR TRES W  DIS CAZ7
 GKN      P   1    350 37.70                                                    
 KOLL     P   1    350 29.10                                                    
 KOLL     S   1    350 35.90                                                    
 DANN     P   1    350 26.00                                                    
 DMN      P   1    350 44.70                                                    
 PKIN     P   1    350 47.80                                                    
 PKI      P   1    350 17.00                                                    
 PKI      S   0    350 20.60                                                    
 GUN      P   1    350 49.40                                                    
 GUN      S   1    350 54.10                                                    
 EVN      P   1    351  0.00                                                    

 2015  510 0359  4.8 L  85.590  27.800  2.0      12 0.4 2.3L                   1
 STAT SP IPHASW D HRMM SECON CODA AMPLIT PERI AZIMU VELO AIN AR TRES W  DIS CAZ7
 GUN      P   1    359 10.60                                                    
 GUN      S   1    359 13.80                                                    
 PKI      P   1    359 10.30                                                    
 PKIN     P   1    359 10.30                                                    
 PKIN     S   1    359 14.60                                                    
 DMN      P   1    359 13.10                                                    
 DMN      S   1    359 20.10                                                    
 EVN      P   1    359 25.80                                                    
 DANN     P   1    359 34.90                                                    
 DANN     S   1    359 58.00                                                    
 KOLL     P   1    359 35.90                                                    
 KOLL     S   1    4 0  0.00                                                    

 2015  510 0415 11.7 L  86.050  28.180 23.0       5 0.1 2.3L                   1
 STAT SP IPHASW D HRMM SECON CODA AMPLIT PERI AZIMU VELO AIN AR TRES W  DIS CAZ7
 GUN      P   1    415 20.10                                                    
 GUN      S   1    415 26.30                                                    
 PKI      P   1    415 27.70                                                    
 PKIN     P   1    415 27.70                                                    
 DMN      P   1    415 30.30                                                    

 2015  510 0420 17.4 L  85.190  27.740 10.0      10 0.6 3.1L                   1
 STAT SP IPHASW D HRMM SECON CODA AMPLIT PERI AZIMU VELO AIN AR TRES W  DIS CAZ7
 DMN      P   1    420 19.90                                                    
 DMN      S   1    420 22.00                                                    
 PKIN     P   1    420 21.60                                                    
 PKIN     S   1    420 25.40                                                    
 PKI      P   1    420 21.90                                                    
 GKN      P   1    420 27.60                                                    
 GKN      S   1    420 34.40                                                    
 GUN      P   1    420 29.60                                                    
 DANN     P   1    420 44.20                                                    
 KOLL     P   1    420 43.80                                                    

 2015  510 0425  4.3 L  85.500  28.130 10.0       5 0.4 3.3L                   1
 STAT SP IPHASW D HRMM SECON CODA AMPLIT PERI AZIMU VELO AIN AR TRES W  DIS CAZ7
 GUN      P   1    425 12.60                                                    
 GUN      S   1    425 16.10                                                    
 PKIN     P   1    425 15.10                                                    
 PKI      P   1    425 15.20                                                    
 GKN      P   1    425 18.90                                                    

 2015  510 0427 11.8 L  85.170  27.740  1.0       9 0.5 2.9L                   1
 STAT SP IPHASW D HRMM SECON CODA AMPLIT PERI AZIMU VELO AIN AR TRES W  DIS CAZ7
 DMN      P   1    427 14.60                                                    
 DMN      S   1    427 17.00                                                    
 PKIN     P   1    427 16.30                                                    
 PKIN     S   1    427 20.20                                                    
 PKI      P   1    427 16.70                                                    
 GKN      P   1    427 22.30                                                    
 GKN      S   1    427 29.20                                                    
 GUN      P   1    427 24.30                                                    
 EVN      P   1    427 39.60                                                    

 2015  510 0431 52.2 L  85.870  27.610 10.0       7 0.3 1.9L                   1
 STAT SP IPHASW D HRMM SECON CODA AMPLIT PERI AZIMU VELO AIN AR TRES W  DIS CAZ7
 GUN      P   1    431 58.50                                                    
 GUN      S   1    432  0.90                                                    
 PKI      P   1    432  0.40                                                    
 PKI      S   1    432  5.40                                                    
 PKIN     P   1    432  0.20                                                    
 PKIN     S   1    432  5.00                                                    
 EVN      P   1    432  9.30                                                    

 2015  510 0436 17.1 L  85.970  27.600 10.0       8 1.3 2.5L                   1
 STAT SP IPHASW D HRMM SECON CODA AMPLIT PERI AZIMU VELO AIN AR TRES W  DIS CAZ7
 GUN      P   1    436 23.40                                                    
 GUN      S   1    436 27.00                                                    
 PKI      P   1    436 28.50                                                    
 PKI      S   1    436 31.30                                                    
 PKIN     P   1    436 28.50                                                    
 PKIN     S   1    436 31.60                                                    
 EVN      P   1    436 31.70                                                    
 GKN      P   1    436 41.40                                                    

 2015  510 0425 29.1 L  85.230  27.920 10.0      12 0.6 3.1L                   1
 STAT SP IPHASW D HRMM SECON CODA AMPLIT PERI AZIMU VELO AIN AR TRES W  DIS CAZ7
 DMN      P   1    425 35.60                                                    
 PKIN     P   1    425 36.30                                                    
 PKIN     S   1    425 40.60                                                    
 PKI      P   1    425 36.50                                                    
 GKN      P   1    425 38.40                                                    
 GKN      S   1    425 45.50                                                    
 GUN      P   1    425 39.40                                                    
 GUN      S   1    425 46.80                                                    
 DANN     P   1    425 54.70                                                    
 DANN     S   1    426 13.50                                                    
 EVN      P   1    425 55.30                                                    
 EVN      S   1    426 14.00                                                    

 2015  510 0447  6.5 L  85.850  27.770 10.0       4 0.0 2.8L                   1
 STAT SP IPHASW D HRMM SECON CODA AMPLIT PERI AZIMU VELO AIN AR TRES W  DIS CAZ7
 GUN      P   1    447  9.40                                                    
 PKI      P   1    447 15.10                                                    
 PKIN     P   1    447 15.10                                                    
 DMN      P   1    447 19.60                                                    

 2015  510 0457  2.6 L  85.760  27.780  5.0       4 0.0 3.2L                   1
 STAT SP IPHASW D HRMM SECON CODA AMPLIT PERI AZIMU VELO AIN AR TRES W  DIS CAZ7
 GUN      P   1    457  6.50                                                    
 PKIN     P   1    457 10.50                                                    
 DMN      P   1    457 14.60                                                    
 EVN      P   1    457 20.80                                                    

 2015  510 0515 13.3 L  85.620  28.810 10.0       6 9.6 2.3L                   1
 STAT SP IPHASW D HRMM SECON CODA AMPLIT PERI AZIMU VELO AIN AR TRES W  DIS CAZ7
 GUN      P   1    515 37.00                                                    
 GUN      S   1    515 39.70                                                    
 GKN      P   1    515 50.90                                                    
 DMN      P   1    515 27.70                                                    
 DANN     P   1    515 34.50                                                    
 DANN     S   0    515 41.80                                                    

 2015  510 0517 50.1 L  86.130  27.350 10.0       6 5.1 3.2L                   1
 STAT SP IPHASW D HRMM SECON CODA AMPLIT PERI AZIMU VELO AIN AR TRES W  DIS CAZ7
 GUN      P   1    518  3.90                                                    
 PKI      P   1    517 53.90                                                    
 PKI      S   1    518 11.10                                                    
 PKIN     P   1    518 11.10                                                    
 EVN      P   1    518  8.30                                                    
 EVN      S   1    518 15.70                                                    

 2015  510 0522 45.4 L  85.890  27.770 10.0       9 2.2 3.3L                   1
 STAT SP IPHASW D HRMM SECON CODA AMPLIT PERI AZIMU VELO AIN AR TRES W  DIS CAZ7
 GUN      P   1    522 47.00                                                    
 GUN      S   1    522 49.30                                                    
 PKI      P   1    522 57.70                                                    
 PKIN     P   1    522 51.30                                                    
 PKIN     S   1    522 57.80                                                    
 DMN      P   1    523  1.80                                                    
 EVN      P   1    523  2.30                                                    
 EVN      S   1    523 11.50                                                    
 GKN      P   1    523  8.70                                                    

 2015  510 0523 15.5 L  83.870  28.020 10.0       6 0.7 3.6L                   1
 STAT SP IPHASW D HRMM SECON CODA AMPLIT PERI AZIMU VELO AIN AR TRES W  DIS CAZ7
 DANN     P   1    523 21.80                                                    
 KOLL     P   1    523 23.60                                                    
 KOLL     S   1    523 25.10                                                    
 PKIN     P   1    523 41.50                                                    
 PKI      P   1    523 41.70                                                    
 EVN      P   1    523 58.70                                                    

 2015  510 0530 47.6 L  85.690  27.620 10.0       4 0.1 1.4L                   1
 STAT SP IPHASW D HRMM SECON CODA AMPLIT PERI AZIMU VELO AIN AR TRES W  DIS CAZ7
 PKI      P   1    530 52.60                                                    
 PKIN     P   1    530 52.60                                                    
 GUN      P   1    530 54.20                                                    
 DMN      P   1    530 57.60                                                    

 2015  510 0533 26.9 L  85.360  28.070 10.0      10 4.3 1.9L                   1
 STAT SP IPHASW D HRMM SECON CODA AMPLIT PERI AZIMU VELO AIN AR TRES W  DIS CAZ7
 GUN      P   1    533 38.10                                                    
 GUN      S   1    533 43.30                                                    
 PKIN     P   1    533 34.80                                                    
 PKIN     S   1    533 39.30                                                    
 PKI      P   1    533 34.80                                                    
 PKI      S   1    533 39.20                                                    
 DMN      P   1    533 41.60                                                    
 DMN      S   1    533 49.30                                                    
 GKN      P   1    533 30.90                                                    
 KOLL     P   1    534  0.10                                                    

