 2015  510 0546 26.8 L  85.930  27.760 10.0      10 1.2 2.5L                   1
 STAT SP IPHASW D HRMM SECON CODA AMPLIT PERI AZIMU VELO AIN AR TRES W  DIS CAZ7
 GUN      P   1    546 28.90                                                    
 PKI      P   1    546 37.80                                                    
 PKI      S   1    546 41.30                                                    
 PKIN     P   1    546 37.60                                                    
 PKIN     S   1    546 41.30                                                    
 DMN      P   1    546 40.80                                                    
 EVN      P   1    546 41.20                                                    
 GKN      P   1    546 48.00                                                    
 DANN     P   1    547  3.50                                                    
 KOLL     P   1    547  4.20                                                    

 2015  510 0553  3.8 L  86.020  27.650 10.0       5 0.2 1.9L                   1
 STAT SP IPHASW D HRMM SECON CODA AMPLIT PERI AZIMU VELO AIN AR TRES W  DIS CAZ7
 GUN      P   1    553  9.70                                                    
 GUN      S   1    553 12.20                                                    
 PKI      P   1    553 14.30                                                    
 PKIN     P   1    553 14.30                                                    
 EVN      P   1    553 18.40                                                    

 2015  510 0603  0.7 L  85.050  27.920 10.0       6 0.4 1.6L                   1
 STAT SP IPHASW D HRMM SECON CODA AMPLIT PERI AZIMU VELO AIN AR TRES W  DIS CAZ7
 GKN      P   1    6 3  7.70                                                    
 PKIN     P   1    6 3 10.10                                                    
 PKIN     S   1    6 3 15.40                                                    
 PKI      P   1    6 3 10.30                                                    
 PKI      S   1    6 3 15.10                                                    
 GUN      P   1    6 3 14.70                                                    

 2015  510 0608  8.4 L  84.270  27.250 10.0       7 6.3 2.3L                   1
 STAT SP IPHASW D HRMM SECON CODA AMPLIT PERI AZIMU VELO AIN AR TRES W  DIS CAZ7
 KOLL     P   1    6 8 26.70                                                    
 KOLL     S   1    6 8 28.20                                                    
 GKN      P   1    6 8 13.80                                                    
 GKN      S   1    6 8 34.70                                                    
 DANN     P   1    6 8 27.60                                                    
 DANN     S   1    6 8 55.70                                                    
 GUN      P   1    6 8 42.80                                                    

 2015  510 0610  3.0 L  85.380  27.790  3.0       8 1.4 1.6L                   1
 STAT SP IPHASW D HRMM SECON CODA AMPLIT PERI AZIMU VELO AIN AR TRES W  DIS CAZ7
 PKIN     P   1    610  7.40                                                    
 PKIN     S   1    610 12.30                                                    
 PKI      P   1    610  7.60                                                    
 DMN      P   1    610  7.30                                                    
 DMN      S   1    610 12.10                                                    
 GUN      P   1    610 11.60                                                    
 GUN      S   1    610 18.10                                                    
 GKN      P   1    610 18.80                                                    

 2015  510 0628 57.3 L  84.860  27.860 10.0      15 7.3 3.2L                   1
 STAT SP IPHASW D HRMM SECON CODA AMPLIT PERI AZIMU VELO AIN AR TRES W  DIS CAZ7
 GKN      P   1    629  8.90                                                    
 DMN      P   1    629  8.40                                                    
 DMN      S   1    629 12.20                                                    
 PKIN     P   1    628 49.10                                                    
 PKIN     S   1    629 12.00                                                    
 PKI      P   1    629 12.20                                                    
 PKI      S   1    629 19.70                                                    
 GUN      P   1    629  8.20                                                    
 GUN      S   1    629 19.80                                                    
 DANN     P   1    629 24.50                                                    
 DANN     S   1    629 26.90                                                    
 KOLL     P   1    629 22.60                                                    
 KOLL     S   1    629 25.40                                                    
 EVN      P   1    629 34.80                                                    
 EVN      S   1    629 57.60                                                    

 2015  510 0637 38.0 L  85.200  27.710 10.0      10 1.5 1.8L                   1
 STAT SP IPHASW D HRMM SECON CODA AMPLIT PERI AZIMU VELO AIN AR TRES W  DIS CAZ7
 DMN      P   1    637 40.10                                                    
 DMN      S   1    637 42.80                                                    
 PKIN     P   1    637 41.30                                                    
 PKIN     S   1    637 44.60                                                    
 PKI      P   1    637 41.50                                                    
 PKI      S   1    637 45.30                                                    
 GUN      P   1    637 49.30                                                    
 GUN      S   1    637 57.00                                                    
 EVN      P   1    638  4.50                                                    
 EVN      S   1    638 27.80                                                    

 2015  510 0652 21.9 L  85.130  27.820  5.0       5 0.0 2.5L                   1
 STAT SP IPHASW D HRMM SECON CODA AMPLIT PERI AZIMU VELO AIN AR TRES W  DIS CAZ7
 DMN      P   1    652 26.60                                                    
 DMN      S   1    652 29.80                                                    
 PKIN     P   1    652 29.00                                                    
 PKI      P   1    652 29.20                                                    
 GKN      P   1    652 31.40                                                    

 2015  510 0655  1.8 L  86.180  28.240 10.0       6 0.5 2.0L                   1
 STAT SP IPHASW D HRMM SECON CODA AMPLIT PERI AZIMU VELO AIN AR TRES W  DIS CAZ7
 GUN      P   1    655 10.90                                                    
 EVN      P   1    655 13.60                                                    
 EVN      S   1    655 24.00                                                    
 PKI      P   1    655 20.50                                                    
 PKIN     P   1    655 20.50                                                    
 PKIN     S   1    655 33.00                                                    

 2015  510 0659 27.0 L  85.540  28.040 10.0      11 0.7 2.4L                   1
 STAT SP IPHASW D HRMM SECON CODA AMPLIT PERI AZIMU VELO AIN AR TRES W  DIS CAZ7
 PKIN     P   1    659 35.80                                                    
 PKIN     S   1    659 42.90                                                    
 PKI      P   1    659 36.00                                                    
 DMN      P   1    659 37.60                                                    
 GKN      P   1    659 41.80                                                    
 GKN      S   1    659 51.40                                                    
 EVN      P   1    659 48.70                                                    
 EVN      S   1    7 0  2.70                                                    
 DANN     P   1    659 56.80                                                    
 DANN     S   1    7 0 17.70                                                    
 KOLL     P   1    659 58.40                                                    

 2015  510 0706 58.7 L  85.820  27.590 10.0       6 0.2 1.7L                   1
 STAT SP IPHASW D HRMM SECON CODA AMPLIT PERI AZIMU VELO AIN AR TRES W  DIS CAZ7
 GUN      P   1    7 7  4.90                                                    
 PKI      P   1    7 7  6.00                                                    
 PKI      S   1    7 7 10.30                                                    
 PKIN     P   1    7 7  5.90                                                    
 PKIN     S   1    7 7 10.20                                                    
 EVN      P   1    7 7 16.80                                                    

 2015  510 0714 11.7 L  86.200  28.250 10.0       7 5.8 2.1L                   1
 STAT SP IPHASW D HRMM SECON CODA AMPLIT PERI AZIMU VELO AIN AR TRES W  DIS CAZ7
 GUN      P   1    714 13.40                                                    
 GUN      S   1    714 21.10                                                    
 EVN      P   1    714 23.10                                                    
 EVN      S   1    714 30.80                                                    
 PKI      P   1    714 38.90                                                    
 PKIN     P   1    714 38.70                                                    
 DANN     P   1    714 44.10                                                    

 2015  510 0718 45.3 L  85.310  28.220 10.0       8 2.2 2.5L                   1
 STAT SP IPHASW D HRMM SECON CODA AMPLIT PERI AZIMU VELO AIN AR TRES W  DIS CAZ7
 GUN      P   1    718 55.10                                                    
 GKN      P   1    718 55.60                                                    
 PKIN     P   1    719  1.40                                                    
 PKIN     S   1    719  5.00                                                    
 PKI      P   1    719  1.40                                                    
 PKI      S   1    719  3.90                                                    
 EVN      P   1    719  9.60                                                    
 KOLL     P   1    719 14.00                                                    

 2015  510 0724 26.0 L  85.380  28.150 10.0       7 1.6 2.0L                   1
 STAT SP IPHASW D HRMM SECON CODA AMPLIT PERI AZIMU VELO AIN AR TRES W  DIS CAZ7
 GUN      P   1    724 38.20                                                    
 GUN      S   1    724 40.20                                                    
 PKIN     P   1    724 37.10                                                    
 PKIN     S   1    724 44.00                                                    
 PKI      P   1    724 37.40                                                    
 GKN      P   1    724 36.50                                                    
 GKN      S   1    724 48.80                                                    

 2015  510 0727 38.1 L  86.100  27.890 10.0       7 1.1 2.2L                   1
 STAT SP IPHASW D HRMM SECON CODA AMPLIT PERI AZIMU VELO AIN AR TRES W  DIS CAZ7
 GUN      P   1    727 41.70                                                    
 EVN      P   1    727 52.60                                                    
 EVN      S   1    727 56.70                                                    
 PKI      P   1    727 51.40                                                    
 PKI      S   0    728  1.20                                                    
 PKIN     P   1    727 51.40                                                    
 PKIN     S   1    728  0.40                                                    

 2015  510 0730  8.3 L  85.010  28.740 10.0       6 7.3 2.4L                   1
 STAT SP IPHASW D HRMM SECON CODA AMPLIT PERI AZIMU VELO AIN AR TRES W  DIS CAZ7
 GKN      P   1    730 24.60                                                    
 GKN      S   1    730 28.00                                                    
 GUN      P   1    730 36.30                                                    
 GUN      S   1    730 49.40                                                    
 KOLL     P   1    730 43.10                                                    
 EVN      P   1    730 26.70                                                    

 2015  510 0735 14.2 L  84.180  28.150 10.0      13 8.9 2.3L                   1
 STAT SP IPHASW D HRMM SECON CODA AMPLIT PERI AZIMU VELO AIN AR TRES W  DIS CAZ7
 DANN     P   1    735 17.00                                                    
 DANN     S   1    735 28.60                                                    
 GKN      P   1    735 24.70                                                    
 GKN      S   1    735 27.60                                                    
 KOLL     P   1    735 29.10                                                    
 KOLL     S   1    735 31.50                                                    
 DMN      P   1    735 35.40                                                    
 DMN      S   1    735 45.90                                                    
 PKIN     P   1    736  3.40                                                    
 PKI      P   1    735 35.10                                                    
 PKI      S   1    735 38.80                                                    
 GUN      P   1    735 38.80                                                    
 EVN      P   1    735 47.20                                                    

 2015  510 0752 27.4 L  84.860  28.060 10.0       4 0.6 2.0L                   1
 STAT SP IPHASW D HRMM SECON CODA AMPLIT PERI AZIMU VELO AIN AR TRES W  DIS CAZ7
 GKN      P   1    752 30.70                                                    
 PKIN     P   1    752 40.30                                                    
 DANN     P   1    752 46.50                                                    
 KOLL     P   1    752 50.10                                                    

 2015  510 0804 27.3 L  85.220  27.760  4.0       6 0.0 1.9L                   1
 STAT SP IPHASW D HRMM SECON CODA AMPLIT PERI AZIMU VELO AIN AR TRES W  DIS CAZ7
 DMN      P   1    8 4 31.40                                                    
 PKIN     P   1    8 4 32.40                                                    
 PKIN     S   1    8 4 35.90                                                    
 PKI      P   1    8 4 32.60                                                    
 PKI      S   1    8 4 36.40                                                    
 GUN      P   1    8 4 39.10                                                    

 2015  510 0806 44.1 L  85.640  27.320 33.0       8 0.6 2.3L                   1
 STAT SP IPHASW D HRMM SECON CODA AMPLIT PERI AZIMU VELO AIN AR TRES W  DIS CAZ7
 PKI      P   1    8 6 54.20                                                    
 PKIN     P   1    8 6 53.80                                                    
 PKIN     S   1    8 7  0.40                                                    
 GUN      P   1    8 6 56.10                                                    
 GUN      S   1    8 7  6.60                                                    
 GUN      S   1    8 7  8.00                                                    
 GKN      P   1    8 7  3.50                                                    
 EVN      S   1    8 7 20.90                                                    

 2015  510 0812 43.0 L  84.300  28.360 35.0      14 6.6 3.3L                   1
 STAT SP IPHASW D HRMM SECON CODA AMPLIT PERI AZIMU VELO AIN AR TRES W  DIS CAZ7
 GKN      P   1    812 58.00                                                    
 GKN      S   1    813  0.80                                                    
 DANN     P   1    812 50.20                                                    
 DANN     S   1    813  2.90                                                    
 KOLL     P   1    813  2.50                                                    
 KOLL     S   1    813  4.50                                                    
 DMN      P   1    813  8.70                                                    
 PKIN     P   1    813 10.50                                                    
 PKIN     S   0    813 12.40                                                    
 PKI      P   1    813 10.60                                                    
 PKI      S   0    813 12.30                                                    
 GUN      P   1    812 59.10                                                    
 GUN      S   1    813 12.30                                                    
 EVN      P   1    813 24.50                                                    

 2015  510 0844 21.0 L  85.830  27.770 10.0       6 1.5 1.6L                   1
 STAT SP IPHASW D HRMM SECON CODA AMPLIT PERI AZIMU VELO AIN AR TRES W  DIS CAZ7
 GUN      P   1    844 23.70                                                    
 PKI      P   1    844 28.80                                                    
 PKIN     P   1    844 28.40                                                    
 PKIN     S   1    844 35.20                                                    
 EVN      P   1    844 40.80                                                    
 EVN      S   1    844 47.80                                                    

 2015  510 0858 53.1 L  86.030  27.920 15.0      13 1.1 2.3L                   1
 STAT SP IPHASW D HRMM SECON CODA AMPLIT PERI AZIMU VELO AIN AR TRES W  DIS CAZ7
 GUN      P   1    858 59.00                                                    
 GUN      S   1    859  0.30                                                    
 PKI      P   1    859  8.10                                                    
 PKI      S   1    859 16.00                                                    
 PKIN     P   1    859  8.00                                                    
 PKIN     S   1    859 15.70                                                    
 EVN      P   1    859  5.80                                                    
 EVN      S   1    859 17.40                                                    
 DMN      P   1    859  9.90                                                    
 GKN      P   1    859 14.60                                                    
 DANN     P   1    859 28.20                                                    
 DANN     S   1    859 54.00                                                    
 KOLL     S   1    859 54.00                                                    

 2015  510 0907 39.1 L  85.460  27.860 10.0       6 0.8 1.8L                   1
 STAT SP IPHASW D HRMM SECON CODA AMPLIT PERI AZIMU VELO AIN AR TRES W  DIS CAZ7
 PKIN     P   1    9 7 45.90                                                    
 PKI      P   1    9 7 46.00                                                    
 PKI      S   1    9 7 47.20                                                    
 GUN      P   1    9 7 45.80                                                    
 DMN      P   1    9 7 46.80                                                    
 DMN      S   1    9 7 51.40                                                    

