 2015  510 1138 13.1 L  85.350  27.910 10.0       5 0.5 1.9L                   1
 STAT SP IPHASW D HRMM SECON CODA AMPLIT PERI AZIMU VELO AIN AR TRES W  DIS CAZ7
 PKIN     P   1   1138 20.10                                                    
 PKIN     S   1   1138 23.00                                                    
 PKI      P   1   1138 20.40                                                    
 DMN      P   1   1138 19.90                                                    
 GUN      P   1   1138 21.80                                                    

 2015  510 1142 10.1 L  85.980  27.890  8.0       6 0.2 1.9L                   1
 STAT SP IPHASW D HRMM SECON CODA AMPLIT PERI AZIMU VELO AIN AR TRES W  DIS CAZ7
 GUN      P   1   1142 13.10                                                    
 PKI      P   1   1142 22.30                                                    
 PKIN     P   1   1142 22.30                                                    
 PKIN     S   1   1142 30.80                                                    
 EVN      P   1   1142 24.20                                                    
 EVN      S   1   1142 35.40                                                    

 2015  510 1101 13.6 L  85.570  28.160 10.0      10 3.7 3.2L                   1
 STAT SP IPHASW D HRMM SECON CODA AMPLIT PERI AZIMU VELO AIN AR TRES W  DIS CAZ7
 GUN      P   1   11 1 23.30                                                    
 PKIN     P   1   11 1 25.00                                                    
 PKI      P   1   11 1 25.10                                                    
 DMN      P   1   11 1 27.90                                                    
 DMN      S   1   11 1 35.20                                                    
 GKN      P   1   11 1 31.40                                                    
 GKN      S   1   11 1 33.90                                                    
 EVN      P   1   11 1 38.40                                                    
 EVN      S   1   11 1 42.70                                                    
 KOLL     P   1   11 1 49.80                                                    

 2015  510 1200 35.6 L  90.170  30.290 10.0       7 8.8 4.5L                   1
 STAT SP IPHASW D HRMM SECON CODA AMPLIT PERI AZIMU VELO AIN AR TRES W  DIS CAZ7
 GUN      P   1   12 1 27.40                                                    
 GUN      S   0   12 1 47.40                                                    
 PKI      P   1   12 1 54.80                                                    
 PKI      S   0   12 1 59.50                                                    
 PKIN     P   1   12 1 59.30                                                    
 DMN      P   1   12 2  0.50                                                    
 DANN     P   1   12 2  4.30                                                    

 2015  510 1211 13.8 L  86.290  28.040  6.0       5 0.1 1.7L                   1
 STAT SP IPHASW D HRMM SECON CODA AMPLIT PERI AZIMU VELO AIN AR TRES W  DIS CAZ7
 GUN      P   1   1211 21.90                                                    
 EVN      P   1   1211 23.30                                                    
 EVN      S   1   1211 30.20                                                    
 PKI      P   1   1211 31.40                                                    
 PKIN     P   1   1211 31.30                                                    

 2015  510 1220  6.2 L  86.010  27.400 10.0       5 1.6 3.5L                   1
 STAT SP IPHASW D HRMM SECON CODA AMPLIT PERI AZIMU VELO AIN AR TRES W  DIS CAZ7
 GUN      P   1   1220 18.90                                                    
 GUN      S   1   1220 22.20                                                    
 PKIN     P   1   1220 15.70                                                    
 EVN      P   1   1220 24.60                                                    
 EVN      S   1   1220 33.90                                                    

 2015  510 1225 50.3 L  85.790  27.820 20.0      11 3.8 2.9L                   1
 STAT SP IPHASW D HRMM SECON CODA AMPLIT PERI AZIMU VELO AIN AR TRES W  DIS CAZ7
 GUN      P   1   1225 57.30                                                    
 PKI      P   1   1226  0.60                                                    
 PKIN     P   1   1226  0.60                                                    
 PKIN     S   1   1226  7.40                                                    
 DMN      P   1   1226  5.50                                                    
 DMN      S   1   1226  8.70                                                    
 EVN      P   1   1226  6.60                                                    
 EVN      S   1   1226 16.90                                                    
 GKN      P   1   1226 14.30                                                    
 GKN      S   1   1226 16.60                                                    
 KOLL     P   1   1226 28.60                                                    

 2015  510 1234 22.6 L  85.140  27.780 10.0       9 1.0 1.6L                   1
 STAT SP IPHASW D HRMM SECON CODA AMPLIT PERI AZIMU VELO AIN AR TRES W  DIS CAZ7
 DMN      P   1   1234 25.80                                                    
 PKIN     P   1   1234 27.80                                                    
 PKIN     S   1   1234 32.00                                                    
 PKI      P   1   1234 28.10                                                    
 PKI      S   1   1234 33.00                                                    
 GKN      P   1   1234 31.10                                                    
 GKN      S   1   1234 37.20                                                    
 DANN     P   1   1234 48.30                                                    
 DANN     S   1   1235  7.20                                                    

 2015  510 1243 11.0 L  86.060  27.580 10.0       5 0.9 2.4L                   1
 STAT SP IPHASW D HRMM SECON CODA AMPLIT PERI AZIMU VELO AIN AR TRES W  DIS CAZ7
 GUN      P   1   1243 18.50                                                    
 PKI      P   1   1243 23.10                                                    
 PKIN     P   1   1243 23.10                                                    
 PKIN     S   1   1243 28.40                                                    
 EVN      P   1   1243 25.10                                                    

 2015  510 1244  4.9 L  86.060  27.660 10.0       5 0.4 2.4L                   1
 STAT SP IPHASW D HRMM SECON CODA AMPLIT PERI AZIMU VELO AIN AR TRES W  DIS CAZ7
 GUN      P   1   1244 10.90                                                    
 PKI      P   1   1244 16.70                                                    
 PKI      S   1   1244 23.00                                                    
 PKIN     P   1   1244 16.70                                                    
 EVN      P   1   1244 18.70                                                    

 2015  510 1253 45.2 L  86.090  28.500 10.0       7 5.0 2.6L                   1
 STAT SP IPHASW D HRMM SECON CODA AMPLIT PERI AZIMU VELO AIN AR TRES W  DIS CAZ7
 GUN      P   1   1254  0.20                                                    
 GUN      S   1   1254  2.10                                                    
 PKI      P   1   1254  5.60                                                    
 PKIN     P   1   1254  5.50                                                    
 GKN      P   1   1254 18.90                                                    
 DANN     P   1   1254 13.00                                                    
 DANN     S   0   1254 15.40                                                    

 2015  510 1305 19.1 L  93.410  34.110 10.0       8 6.7 5.8L                   1
 STAT SP IPHASW D HRMM SECON CODA AMPLIT PERI AZIMU VELO AIN AR TRES W  DIS CAZ7
 GUN      P   1   13 7 17.40                                                    
 GUN      S   0   13 7 19.80                                                    
 PKI      P   1   13 7 43.10                                                    
 PKIN     P   1   13 7 42.80                                                    
 DMN      P   1   13 7 39.80                                                    
 DMN      S   0   13 7 44.00                                                    
 GKN      P   1   13 7 38.20                                                    
 GKN      S   0   13 7 41.60                                                    

 2015  510 1316 18.7 L  86.080  27.380 10.0       6 1.9 2.4L                   1
 STAT SP IPHASW D HRMM SECON CODA AMPLIT PERI AZIMU VELO AIN AR TRES W  DIS CAZ7
 GUN      P   1   1316 31.80                                                    
 PKI      P   1   1316 31.90                                                    
 PKIN     P   1   1316 31.90                                                    
 PKIN     S   1   1316 36.00                                                    
 EVN      P   1   1316 33.30                                                    
 DMN      P   1   1316 36.60                                                    

 2015  510 1321 25.2 L  85.500  28.120 10.0       5 1.3 2.3L                   1
 STAT SP IPHASW D HRMM SECON CODA AMPLIT PERI AZIMU VELO AIN AR TRES W  DIS CAZ7
 GUN      P   1   1321 33.70                                                    
 GUN      S   1   1321 36.50                                                    
 PKIN     P   1   1321 36.80                                                    
 PKI      P   1   1321 37.10                                                    
 DMN      P   1   1321 35.10                                                    

 2015  510 1323  9.3 L  86.640  29.980 10.0       6 4.8 3.8L                   1
 STAT SP IPHASW D HRMM SECON CODA AMPLIT PERI AZIMU VELO AIN AR TRES W  DIS CAZ7
 GUN      P   1   1323 40.10                                                    
 PKIN     P   1   1323 58.00                                                    
 PKI      P   1   1323 58.20                                                    
 GKN      P   1   1323 46.60                                                    
 DMN      P   1   1323 54.80                                                    
 DANN     P   1   1324  0.00                                                    

 2015  510 1328  2.4 L  85.180  27.810  6.0       6 0.1 2.5L                   1
 STAT SP IPHASW D HRMM SECON CODA AMPLIT PERI AZIMU VELO AIN AR TRES W  DIS CAZ7
 DMN      P   1   1328  7.20                                                    
 DMN      S   1   1328 10.50                                                    
 PKIN     P   1   1328  8.70                                                    
 PKI      P   1   1328  9.00                                                    
 PKI      S   1   1328 13.90                                                    
 GKN      P   1   1328 12.80                                                    

 2015  510 1332 39.4 L  85.580  27.930 10.0       4 0.0 3.0L                   1
 STAT SP IPHASW D HRMM SECON CODA AMPLIT PERI AZIMU VELO AIN AR TRES W  DIS CAZ7
 GUN      P   1   1332 44.60                                                    
 PKIN     P   1   1332 46.90                                                    
 PKI      P   1   1332 47.00                                                    
 DMN      P   1   1332 49.60                                                    

 2015  510 1333 16.4 L  85.590  28.250 10.0       8 1.5 3.4L                   1
 STAT SP IPHASW D HRMM SECON CODA AMPLIT PERI AZIMU VELO AIN AR TRES W  DIS CAZ7
 GUN      P   1   1333 23.80                                                    
 PKIN     P   1   1333 29.60                                                    
 PKIN     S   1   1333 36.50                                                    
 PKI      P   1   1333 29.60                                                    
 DMN      P   1   1333 33.50                                                    
 DMN      S   1   1333 43.30                                                    
 GKN      S   1   1333 43.10                                                    
 EVN      P   1   1333 37.80                                                    

 2015  510 1336 43.0 L  91.330  34.530 10.0       5 1.9 4.8L                   1
 STAT SP IPHASW D HRMM SECON CODA AMPLIT PERI AZIMU VELO AIN AR TRES W  DIS CAZ7
 GUN      P   1   1338 38.80                                                    
 PKI      P   1   1338 50.70                                                    
 PKIN     P   1   1338 50.50                                                    
 DMN      P   1   1338 48.80                                                    
 DANN     P   1   1338 53.00                                                    

 2015  510 1348 30.7 L  86.030  28.380 15.0       5 0.1 2.9L                   1
 STAT SP IPHASW D HRMM SECON CODA AMPLIT PERI AZIMU VELO AIN AR TRES W  DIS CAZ7
 GUN      P   1   1348 41.30                                                    
 GUN      S   1   1348 49.00                                                    
 PKI      P   1   1348 49.40                                                    
 PKIN     P   1   1348 49.30                                                    
 DMN      P   1   1348 51.50                                                    

 2015  510 1356  1.3 L  84.550  27.920 10.0       6 5.1 2.8L                   1
 STAT SP IPHASW D HRMM SECON CODA AMPLIT PERI AZIMU VELO AIN AR TRES W  DIS CAZ7
 GKN      P   1   1356  9.50                                                    
 DANN     P   1   1356 17.10                                                    
 DANN     S   1   1356 21.00                                                    
 PKIN     P   1   1356 13.70                                                    
 PKI      P   1   1356 13.90                                                    
 KOLL     P   1   1356 25.00                                                    

 2015  510 1357 26.8 L  85.620  28.000 10.0      12 1.1 2.8L                   1
 STAT SP IPHASW D HRMM SECON CODA AMPLIT PERI AZIMU VELO AIN AR TRES W  DIS CAZ7
 GUN      P   1   1357 32.10                                                    
 PKIN     P   1   1357 35.20                                                    
 PKIN     S   1   1357 41.20                                                    
 PKI      P   1   1357 35.30                                                    
 DMN      P   1   1357 38.00                                                    
 DMN      S   1   1357 47.00                                                    
 GKN      P   1   1357 43.80                                                    
 GKN      S   1   1357 52.40                                                    
 EVN      P   1   1357 46.70                                                    
 EVN      S   1   1357 59.70                                                    
 DANN     P   1   1357 58.50                                                    
 KOLL     P   1   1357 59.90                                                    

 2015  510 1400 31.1 L  85.210  27.910 10.0       5 0.6 1.6L                   1
 STAT SP IPHASW D HRMM SECON CODA AMPLIT PERI AZIMU VELO AIN AR TRES W  DIS CAZ7
 DMN      P   1   14 0 37.80                                                    
 DMN      S   1   14 0 40.00                                                    
 PKIN     P   1   14 0 38.60                                                    
 PKI      P   1   14 0 38.90                                                    
 GUN      P   1   14 0 41.80                                                    

 2015  510 1405  3.7 L  86.180  27.840 10.0       6 0.9 2.0L                   1
 STAT SP IPHASW D HRMM SECON CODA AMPLIT PERI AZIMU VELO AIN AR TRES W  DIS CAZ7
 GUN      P   1   14 5  9.40                                                    
 GUN      S   1   14 5 11.70                                                    
 EVN      P   1   14 5 16.30                                                    
 EVN      S   1   14 5 20.60                                                    
 PKI      P   1   14 5 17.70                                                    
 PKIN     P   1   14 5 17.70                                                    

 2015  510 1408 42.0 L  85.420  27.800  8.0       6 0.3 1.5L                   1
 STAT SP IPHASW D HRMM SECON CODA AMPLIT PERI AZIMU VELO AIN AR TRES W  DIS CAZ7
 PKIN     P   1   14 8 47.60                                                    
 PKIN     S   1   14 8 51.20                                                    
 PKI      P   1   14 8 47.80                                                    
 DMN      P   1   14 8 49.00                                                    
 DMN      S   1   14 8 55.10                                                    
 GUN      P   1   14 8 50.90                                                    

 2015  510 1417 17.7 L  84.680  28.290 10.0       5 1.8 3.6L                   1
 STAT SP IPHASW D HRMM SECON CODA AMPLIT PERI AZIMU VELO AIN AR TRES W  DIS CAZ7
 GKN      P   1   1417 22.40                                                    
 PKIN     S   1   1417 47.30                                                    
 PKI      P   1   1417 39.50                                                    
 GUN      P   1   1417 39.40                                                    
 EVN      P   1   1417 49.60                                                    

 2015  510 1425 45.5 L  84.110  32.810 10.0       4 0.1 4.0L                   1
 STAT SP IPHASW D HRMM SECON CODA AMPLIT PERI AZIMU VELO AIN AR TRES W  DIS CAZ7
 GKN      P   1   1426 59.20                                                    
 GUN      P   1   1427  3.40                                                    
 PKIN     P   1   1427  6.40                                                    
 PKI      P   1   1427  6.50                                                    

 2015  510 1432 34.7 L  85.940  27.960 12.0       7 0.4 1.9L                   1
 STAT SP IPHASW D HRMM SECON CODA AMPLIT PERI AZIMU VELO AIN AR TRES W  DIS CAZ7
 GUN      P   1   1432 38.10                                                    
 PKI      P   1   1432 47.40                                                    
 PKI      S   1   1432 56.60                                                    
 PKIN     P   1   1432 47.40                                                    
 PKIN     S   1   1432 55.80                                                    
 EVN      P   1   1432 49.40                                                    
 EVN      S   1   1433  1.10                                                    

 2015  510 1440 18.9 L  85.280  27.680  5.0       5 0.0 1.2L                   1
 STAT SP IPHASW D HRMM SECON CODA AMPLIT PERI AZIMU VELO AIN AR TRES W  DIS CAZ7
 PKIN     P   1   1440 22.40                                                    
 PKIN     S   1   1440 24.90                                                    
 PKI      P   1   1440 22.60                                                    
 DMN      P   1   1440 22.90                                                    
 EVN      P   1   1440 44.10                                                    

