 2015  510 1946 34.6 L  85.470  27.880 10.0       4 0.0 2.1L                   1
 STAT SP IPHASW D HRMM SECON CODA AMPLIT PERI AZIMU VELO AIN AR TRES W  DIS CAZ7
 PKIN     P   1   1946 40.60                                                    
 PKI      P   1   1946 40.70                                                    
 GUN      P   1   1946 41.60                                                    
 DMN      P   1   1946 42.80                                                    

 2015  510 1949  5.0 L  85.890  27.590 10.0       6 0.6 1.6L                   1
 STAT SP IPHASW D HRMM SECON CODA AMPLIT PERI AZIMU VELO AIN AR TRES W  DIS CAZ7
 GUN      P   1   1949 11.20                                                    
 PKI      P   1   1949 13.00                                                    
 PKI      S   1   1949 18.60                                                    
 PKIN     P   1   1949 13.00                                                    
 EVN      P   1   1949 23.30                                                    
 EVN      S   1   1949 33.20                                                    

 2015  510 2002 48.7 L  85.460  27.770 29.0       7 0.6 1.5L                   1
 STAT SP IPHASW D HRMM SECON CODA AMPLIT PERI AZIMU VELO AIN AR TRES W  DIS CAZ7
 PKIN     P   1   20 2 56.60                                                    
 PKIN     S   1   20 3  0.60                                                    
 PKI      P   1   20 2 56.80                                                    
 DMN      P   1   20 2 58.50                                                    
 DMN      S   1   20 3  5.50                                                    
 GUN      P   1   20 2 58.70                                                    
 GKN      P   1   20 3  2.90                                                    

 2015  510 2017 16.1 L  85.860  27.810  4.0      10 1.9 2.8L                   1
 STAT SP IPHASW D HRMM SECON CODA AMPLIT PERI AZIMU VELO AIN AR TRES W  DIS CAZ7
 GUN      P   1   2017 15.80                                                    
 GUN      S   1   2017 20.10                                                    
 PKIN     P   1   2017 23.10                                                    
 DMN      P   1   2017 28.90                                                    
 EVN      P   1   2017 34.30                                                    
 EVN      S   1   2017 45.40                                                    
 GKN      P   1   2017 35.60                                                    
 GKN      S   1   2017 56.00                                                    
 DANN     P   1   2017 49.30                                                    
 KOLL     P   1   2017 51.70                                                    

 2015  510 2030 13.7 L  85.880  27.880 41.0       5 0.1 2.2L                   1
 STAT SP IPHASW D HRMM SECON CODA AMPLIT PERI AZIMU VELO AIN AR TRES W  DIS CAZ7
 GUN      P   1   2030 20.40                                                    
 GUN      S   1   2030 25.40                                                    
 PKI      P   1   2030 26.00                                                    
 PKIN     P   1   2030 25.90                                                    
 DMN      P   1   2030 28.30                                                    

 2015  510 2040 16.7 L  85.870  27.670 10.0       9 5.3 1.6L                   1
 STAT SP IPHASW D HRMM SECON CODA AMPLIT PERI AZIMU VELO AIN AR TRES W  DIS CAZ7
 GUN      P   1   2040 19.50                                                    
 PKI      P   1   2040 19.90                                                    
 PKI      S   0   2040 21.80                                                    
 PKIN     P   1   2040 19.90                                                    
 PKIN     S   0   2040 22.20                                                    
 DMN      P   1   2040 38.20                                                    
 DMN      S   0   2040 41.00                                                    
 GKN      P   1   2040 44.30                                                    
 GKN      S   1   2040 51.20                                                    

 2015  510 2052 27.4 L  81.690  30.560 10.0       5 2.1 4.3L                   1
 STAT SP IPHASW D HRMM SECON CODA AMPLIT PERI AZIMU VELO AIN AR TRES W  DIS CAZ7
 DANN     P   1   2053 13.20                                                    
 PKIN     P   1   2053 37.00                                                    
 PKI      P   1   2053 37.00                                                    
 GUN      P   1   2053 33.10                                                    
 EVN      P   1   2053 47.40                                                    

 2015  510 2056 11.0 L  85.160  28.070 44.0       4 0.0 1.6L                   1
 STAT SP IPHASW D HRMM SECON CODA AMPLIT PERI AZIMU VELO AIN AR TRES W  DIS CAZ7
 GKN      P   1   2056 22.90                                                    
 PKIN     P   1   2056 23.60                                                    
 PKI      P   1   2056 23.70                                                    
 GUN      P   1   2056 24.80                                                    

 2015  510 2059 18.9 L  85.140  27.530 10.0       6 1.8 1.6L                   1
 STAT SP IPHASW D HRMM SECON CODA AMPLIT PERI AZIMU VELO AIN AR TRES W  DIS CAZ7
 PKIN     P   1   2059 22.30                                                    
 PKI      P   1   2059 22.30                                                    
 PKI      S   1   2059 27.20                                                    
 GKN      P   1   2059 33.30                                                    
 DANN     P   1   2059 47.70                                                    
 DANN     S   1   21 0  2.50                                                    

 2015  510 2111 33.5 L  86.110  28.110 11.0       6 0.1 1.9L                   1
 STAT SP IPHASW D HRMM SECON CODA AMPLIT PERI AZIMU VELO AIN AR TRES W  DIS CAZ7
 GUN      P   1   2111 40.40                                                    
 GUN      S   1   2111 45.00                                                    
 EVN      P   1   2111 46.20                                                    
 EVN      S   1   2111 56.00                                                    
 PKI      P   1   2111 49.60                                                    
 PKIN     P   1   2111 49.50                                                    

 2015  510 2114  9.4 L  84.720  27.930 10.0       7 4.3 1.8L                   1
 STAT SP IPHASW D HRMM SECON CODA AMPLIT PERI AZIMU VELO AIN AR TRES W  DIS CAZ7
 GKN      P   1   2114  9.50                                                    
 GKN      S   1   2114 12.30                                                    
 DANN     P   1   2114 26.20                                                    
 DANN     S   1   2114 42.30                                                    
 KOLL     P   1   2114 28.30                                                    
 GUN      P   1   2114 37.30                                                    
 EVN      P   1   2114 34.90                                                    

 2015  510 2116  6.3 L  85.810  28.260 10.0       5 1.2 1.8L                   1
 STAT SP IPHASW D HRMM SECON CODA AMPLIT PERI AZIMU VELO AIN AR TRES W  DIS CAZ7
 GUN      P   1   2116 13.30                                                    
 GUN      S   1   2116 16.20                                                    
 PKIN     P   1   2116 23.20                                                    
 EVN      P   1   2116 24.30                                                    
 GKN      P   1   2116 25.30                                                    

 2015  510 2121 48.3 L  85.200  28.320 10.0      10 4.5 2.2L                   1
 STAT SP IPHASW D HRMM SECON CODA AMPLIT PERI AZIMU VELO AIN AR TRES W  DIS CAZ7
 GKN      P   1   2121 57.50                                                    
 GKN      S   1   2122  1.10                                                    
 PKIN     P   1   2122  8.00                                                    
 PKI      P   1   2122  8.00                                                    
 DANN     P   1   2122 14.10                                                    
 DANN     S   1   2122 30.00                                                    
 EVN      P   1   2122 19.60                                                    
 EVN      S   1   2122 25.40                                                    
 KOLL     P   1   2122 16.10                                                    
 KOLL     S   1   2122 35.00                                                    

 2015  510 2128 27.6 L  85.910  28.350 10.0      10 1.4 2.3L                   1
 STAT SP IPHASW D HRMM SECON CODA AMPLIT PERI AZIMU VELO AIN AR TRES W  DIS CAZ7
 GUN      P   1   2128 37.10                                                    
 GUN      S   1   2128 39.10                                                    
 EVN      P   1   2128 44.70                                                    
 PKI      P   1   2128 45.90                                                    
 PKI      S   1   2128 57.30                                                    
 PKIN     P   1   2128 45.80                                                    
 PKIN     S   1   2128 56.60                                                    
 DMN      P   1   2128 47.50                                                    
 GKN      P   1   2128 46.80                                                    
 KOLL     P   1   2129  4.90                                                    

 2015  510 2139  1.5 L  85.150  27.640 11.0       6 0.0 2.1L                   1
 STAT SP IPHASW D HRMM SECON CODA AMPLIT PERI AZIMU VELO AIN AR TRES W  DIS CAZ7
 DMN      P   1   2139  4.20                                                    
 PKIN     P   1   2139  7.30                                                    
 PKIN     S   1   2139 11.50                                                    
 PKI      P   1   2139  7.50                                                    
 PKI      S   1   2139 11.90                                                    
 GUN      P   1   2139 15.40                                                    

 2015  510 2140 42.9 L  85.040  28.090 10.0      11 0.3 2.9L                   1
 STAT SP IPHASW D HRMM SECON CODA AMPLIT PERI AZIMU VELO AIN AR TRES W  DIS CAZ7
 GKN      P   1   2140 50.10                                                    
 GKN      S   1   2140 54.20                                                    
 DMN      P   1   2140 52.00                                                    
 DMN      S   1   2140 58.10                                                    
 PKIN     P   1   2140 54.10                                                    
 PKI      P   1   2140 54.30                                                    
 PKI      S   1   2141  2.60                                                    
 GUN      P   1   2140 57.50                                                    
 GUN      S   1   2141  7.10                                                    
 DANN     P   1   2141  4.90                                                    
 EVN      P   1   2141 11.80                                                    

 2015  510 2145 51.6 L  85.990  27.600 10.0      11 1.8 3.3L                   1
 STAT SP IPHASW D HRMM SECON CODA AMPLIT PERI AZIMU VELO AIN AR TRES W  DIS CAZ7
 GUN      P   1   2145 57.80                                                    
 PKI      P   1   2146  0.20                                                    
 PKI      S   1   2146  4.50                                                    
 PKIN     P   1   2146  4.40                                                    
 PKIN     S   1   2146  6.20                                                    
 DMN      P   1   2146  8.90                                                    
 DMN      S   1   2146 17.00                                                    
 EVN      P   1   2146  7.20                                                    
 EVN      S   1   2146 16.00                                                    
 GKN      P   1   2146 16.50                                                    
 DANN     P   1   2146 29.20                                                    

 2015  510 2150  6.7 L  85.530  27.730 10.0       6 0.3 2.8L                   1
 STAT SP IPHASW D HRMM SECON CODA AMPLIT PERI AZIMU VELO AIN AR TRES W  DIS CAZ7
 PKI      P   1   2150 11.00                                                    
 PKIN     P   1   2150 10.80                                                    
 PKIN     S   1   2150 12.00                                                    
 GUN      P   1   2150 13.20                                                    
 GUN      S   1   2150 17.70                                                    
 DMN      P   1   2150 14.40                                                    

 2015  510 2151  7.0 L  85.410  27.880 10.0       9 1.2 2.9L                   1
 STAT SP IPHASW D HRMM SECON CODA AMPLIT PERI AZIMU VELO AIN AR TRES W  DIS CAZ7
 PKIN     P   1   2151 13.20                                                    
 PKIN     S   1   2151 16.10                                                    
 PKI      P   1   2151 13.40                                                    
 DMN      P   1   2151 15.40                                                    
 DMN      S   1   2151 18.20                                                    
 GUN      P   1   2151 13.20                                                    
 GKN      P   1   2151 21.00                                                    
 EVN      P   1   2151 28.50                                                    
 EVN      S   1   2151 49.00                                                    

 2015  510 2203 20.3 L  85.430  27.780 10.0       7 1.9 2.0L                   1
 STAT SP IPHASW D HRMM SECON CODA AMPLIT PERI AZIMU VELO AIN AR TRES W  DIS CAZ7
 PKIN     P   1   22 3 24.60                                                    
 PKI      P   1   22 3 24.50                                                    
 PKI      S   1   22 3 28.20                                                    
 DMN      P   1   22 3 24.80                                                    
 DMN      S   1   22 3 28.30                                                    
 GUN      P   1   22 3 26.90                                                    
 GKN      P   1   22 3 37.80                                                    

 2015  510 2213 40.8 L  86.000  27.820 18.0       8 0.8 1.8L                   1
 STAT SP IPHASW D HRMM SECON CODA AMPLIT PERI AZIMU VELO AIN AR TRES W  DIS CAZ7
 GUN      P   1   2213 47.00                                                    
 GUN      S   1   2213 49.50                                                    
 PKI      P   1   2213 53.50                                                    
 PKI      S   1   2214  2.50                                                    
 PKIN     P   1   2213 53.50                                                    
 PKIN     S   1   2214  0.90                                                    
 EVN      P   1   2213 54.20                                                    
 EVN      S   1   2214  6.80                                                    

 2015  510 2228 55.2 L  85.710  27.570  4.0       5 0.1 2.0L                   1
 STAT SP IPHASW D HRMM SECON CODA AMPLIT PERI AZIMU VELO AIN AR TRES W  DIS CAZ7
 PKI      P   1   2229  1.10                                                    
 PKI      S   1   2229  5.10                                                    
 PKIN     P   1   2229  1.10                                                    
 GUN      P   1   2229  2.80                                                    
 DMN      P   1   2229  6.00                                                    

 2015  510 2232 55.7 L  85.540  27.280 10.0       5 8.7 2.0L                   1
 STAT SP IPHASW D HRMM SECON CODA AMPLIT PERI AZIMU VELO AIN AR TRES W  DIS CAZ7
 PKIN     P   1   2233  5.30                                                    
 PKIN     S   1   2233  8.00                                                    
 GUN      P   1   2233  9.60                                                    
 GKN      P   1   2233  0.10                                                    
 KOLL     P   1   2233 37.40                                                    

 2015  510 2244  9.3 L  84.310  28.180 42.0      14 6.1 3.2L                   1
 STAT SP IPHASW D HRMM SECON CODA AMPLIT PERI AZIMU VELO AIN AR TRES W  DIS CAZ7
 GKN      P   1   2244 23.50                                                    
 GKN      S   1   2244 26.10                                                    
 DANN     P   1   2244 15.60                                                    
 DANN     S   1   2244 27.50                                                    
 KOLL     P   1   2244 28.00                                                    
 KOLL     S   1   2244 30.10                                                    
 DMN      P   1   2244 34.00                                                    
 PKIN     P   1   2244 35.70                                                    
 PKIN     S   1   2244 37.80                                                    
 PKI      P   1   2244 35.90                                                    
 PKI      S   1   2244 38.00                                                    
 GUN      P   1   2244 36.80                                                    
 GUN      S   1   2244 38.40                                                    
 EVN      P   1   2244 47.50                                                    

 2015  510 2255 14.3 L  85.770  28.160 10.0       8 1.0 2.0L                   1
 STAT SP IPHASW D HRMM SECON CODA AMPLIT PERI AZIMU VELO AIN AR TRES W  DIS CAZ7
 GUN      P   1   2255 19.80                                                    
 PKI      P   1   2255 26.50                                                    
 PKI      S   1   2255 35.20                                                    
 PKIN     P   1   2255 26.50                                                    
 PKIN     S   1   2255 34.90                                                    
 DMN      P   1   2255 31.20                                                    
 DMN      S   1   2255 42.00                                                    
 GKN      S   1   2255 46.30                                                    

