 2015  510 0015 44.8 L  27.857  85.946  3.3  GOR  9 0.6                        1
 GAP=157        0.87       6.5     3.4  8.2 -0.1120E+02 -0.1024E+01  0.1007E+02E
                                                                               6
 STAT SP IPHASW D HRMM SECON CODA AMPLIT PERI AZIMU VELO AIN AR TRES W  DIS CAZ7
 GUN      P   1    015 46.90                             125    0.29 8 8.75 312 
 PKI      P   0    015 55.84                              96    0.3810 61.7 239 
 PKI      S   2    016  3.40                              96   -0.07 5 61.7 239 
 PKIN     P   1    015 55.80                              95    0.23 7 62.4 240 
 PKIN     S   2    016  2.60                              95   -1.08 5 62.4 240 
 KKN      P   0    015 56.04                              95   -0.1410 66.0 265 
 KKN      S   3    016  3.28                              95   -1.47 2 66.0 265 
 EVN      P   0    015 59.99                              95    0.33 9 86.0  82 
 EVN      S   2    016  9.20                              95   -1.63 5 86.0  82 
 DMN      P   0    015 59.98                              94    0.13 9 87.3 252 
 GKN      P   1    016  6.30                              92   -0.87 6  130 277 
 DANN     P   1    016 21.86                              46    0.24 3  221 285 
 DANN     S   3    016 48.18                              46   -1.08 1  221 285 
 KOLL     P   0    016 22.98                              46    0.23 4  231 268 
 KOLL     S   2    016 51.56                              46    0.33 2  231 268 
                                                                                
