 2015  510  015 44.5 L  27.858  85.951  6.5      14 0.6                        1
                          10.6     4.9 17.2                                    E
                                                                               6
 STAT SP IPHASW D HRMM SECON CODA AMPLIT PERI AZIMU VELO AIN AR TRES W  DIS CAZ7
 GUN      P   1    015 46.90                                     0.2            
 PKI      P   0    015 55.84                                     0.5            
 PKI      S   2    016  3.40                                       0            
 PKIN     P   1    015 55.80                                     0.4            
 PKIN     S   2    016  2.60                                      -1            
 KKN      P   0    015 56.04                                                    
 KKN      S   3    016  3.28                                                    
 EVN      P   0    015 59.99                                     0.6            
 EVN      S   2    016  9.20                                    -1.3            
 DMN      P   0    015 59.98                                     0.3            
 GKN      P   1    016  6.30                                    -0.7            
 DANN     P   1    016 21.86                                                    
 DANN     S   3    016 48.18                                                    
 KOLL     P   0    016 22.98                                                    
 KOLL     S   2    016 51.56                                                    
                                                                                
